index,province,city,district,place,latitude,longtitude,equipment,whole_body,neck,shoulder,arm,chest,abs,thigh,calf,cardio,authority,phone_no
,,서울특별시,서대문구,연희지하차도위휴식공간,37.576803,126.934158,체어풀,,,,,,,,,,서대문구청 푸른도시과,02-330-1395
,,서울특별시,서대문구,연희지하차도위휴식공간,37.576792,126.934127,공중걷기,,,,,,,,,,서대문구청 푸른도시과,02-330-1395
,,서울특별시,서대문구,연희지하차도위휴식공간,37.576783,126.934164,상체근육풀기,,,,,,,,,,서대문구청 푸른도시과,02-330-1395
,,서울특별시,서대문구,연희지하차도위휴식공간,37.576773,126.934135,허리돌리기,,,,,,,,,,서대문구청 푸른도시과,02-330-1395
,,서울특별시,서대문구,연희지하차도위휴식공간,37.576791,126.934151,스텝사이클,,,,,,,,,,서대문구청 푸른도시과,02-330-1395
,,서울특별시,서대문구,다람쥐어린이공원,37.575994,126.934473,윗몸일으키기,,,,,,,,,,서대문구청 푸른도시과,02-330-1395
,,서울특별시,서대문구,다람쥐어린이공원,37.576045,126.934454,상체근육풀기,,,,,,,,,,서대문구청 푸른도시과,02-330-1395
,,서울특별시,서대문구,다람쥐어린이공원,37.576071,126.934456,공중걷기,,,,,,,,,,서대문구청 푸른도시과,02-330-1395
,,서울특별시,서대문구,홍연소공원,37.576124,126.93246,등허리지압기,,,,,,,,,,서대문구청 푸른도시과,02-330-1395
,,서울특별시,서대문구,홍연소공원,37.57616,126.932452,공중걷기,,,,,,,,,,서대문구청 푸른도시과,02-330-1395
,,서울특별시,서대문구,홍연소공원,37.576187,126.932487,역기올리기,,,,,,,,,,서대문구청 푸른도시과,02-330-1395
,,서울특별시,서대문구,홍연소공원,37.576177,126.932516,파도타기,,,,,,,,,,서대문구청 푸른도시과,02-330-1395
,,서울특별시,서대문구,홍연소공원,37.576185,126.932517,양팔줄당기기,,,,,,,,,,서대문구청 푸른도시과,02-330-1395
,,서울특별시,서대문구,홍연소공원,37.576198,126.932562,파도타기,,,,,,,,,,서대문구청 푸른도시과,02-330-1395
,,서울특별시,서대문구,홍연소공원,37.5762,126.932598,물구나무,,,,,,,,,,서대문구청 푸른도시과,02-330-1395
,,서울특별시,서대문구,홍연소공원,37.576198,126.932598,허리돌리기,,,,,,,,,,서대문구청 푸른도시과,02-330-1395
,,서울특별시,서대문구,궁뜰어린이공원,37.569082,126.930317,철봉,,,,,,,,,,서대문구청 푸른도시과,02-330-1395
,,서울특별시,서대문구,궁뜰어린이공원,37.569092,126.930323,허리돌리기,,,,,,,,,,서대문구청 푸른도시과,02-330-1395
,,서울특별시,서대문구,궁뜰어린이공원,37.569121,126.93031,상체근육풀기,,,,,,,,,,서대문구청 푸른도시과,02-330-1395
,,서울특별시,서대문구,궁뜰어린이공원,37.569101,126.930289,공중걷기,,,,,,,,,,서대문구청 푸른도시과,02-330-1395
,,서울특별시,서대문구,궁뜰어린이공원,37.569098,126.930294,파도타기,,,,,,,,,,서대문구청 푸른도시과,02-330-1395
,,서울특별시,서대문구,궁말어린이공원,37.571179,126.933655,공중걷기,,,,,,,,,,서대문구청 푸른도시과,02-330-1395
,,서울특별시,서대문구,궁말어린이공원,37.571167,126.933675,상체근육풀기,,,,,,,,,,서대문구청 푸른도시과,02-330-1395
,,서울특별시,서대문구,대궐재어린이공원,37.574129,126.937132,역기올리기,,,,,,,,,,서대문구청 푸른도시과,02-330-1395
,,서울특별시,서대문구,대궐재어린이공원,37.574148,126.937062,레그프레스,,,,,,,,,,서대문구청 푸른도시과,02-330-1395
,,서울특별시,서대문구,대궐재어린이공원,37.574169,126.93708,공중걷기,,,,,,,,,,서대문구청 푸른도시과,02-330-1395
,,서울특별시,서대문구,대궐재어린이공원,37.574149,126.937049,자가발전입식사이클,,,,,,,,,,서대문구청 푸른도시과,02-330-1395
,,서울특별시,서대문구,대궐재어린이공원,37.574159,126.937038,상체근육풀기,,,,,,,,,,서대문구청 푸른도시과,02-330-1395
,,서울특별시,서대문구,대궐재어린이공원,37.574144,126.937013,허리돌리기,,,,,,,,,,서대문구청 푸른도시과,02-330-1395
,,서울특별시,서대문구,연희어린이공원,37.567723,126.921459,상체근육풀기,,,,,,,,,,서대문구청 푸른도시과,02-330-1395
,,서울특별시,서대문구,연희어린이공원,37.567726,126.921455,공중걷기,,,,,,,,,,서대문구청 푸른도시과,02-330-1395
,,서울특별시,서대문구,연희어린이공원,37.567722,126.921466,양팔로프당기기,,,,,,,,,,서대문구청 푸른도시과,02-330-1395
,,서울특별시,서대문구,연희동주민쉼터,37.573179,126.928619,워킹트레이너머신/달리기유형,,,,,,,,,,서대문구청 푸른도시과,02-330-1395
,,서울특별시,서대문구,연희동주민쉼터,37.573175,126.928629,상체근육풀기,,,,,,,,,,서대문구청 푸른도시과,02-330-1395
,,서울특별시,서대문구,불천어린이공원,37.597022,126.947892,허리돌리기,,,,,,,,,,서대문구청 푸른도시과,02-330-1395
,,서울특별시,서대문구,불천어린이공원,37.596999,126.947882,상체근육풀기,,,,,,,,,,서대문구청 푸른도시과,02-330-1395
,,서울특별시,서대문구,불천어린이공원,37.597012,126.94787,공중걷기,,,,,,,,,,서대문구청 푸른도시과,02-330-1395
,,서울특별시,서대문구,불천어린이공원,37.597059,126.94784,파도타기,,,,,,,,,,서대문구청 푸른도시과,02-330-1395
,,서울특별시,서대문구,홍박소공원,37.601568,126.948822,상체근육풀기,,,,,,,,,,서대문구청 푸른도시과,02-330-1395
,,서울특별시,서대문구,홍박소공원,37.601545,126.948792,파도타기,,,,,,,,,,서대문구청 푸른도시과,02-330-1395
,,서울특별시,서대문구,홍박소공원,37.601526,126.948779,허리돌리기,,,,,,,,,,서대문구청 푸른도시과,02-330-1395
,,서울특별시,서대문구,홍박소공원,37.601497,126.948955,공중걷기,,,,,,,,,,서대문구청 푸른도시과,02-330-1395
,,서울특별시,서대문구,홍박소공원,37.601498,126.94892,달리기유형,,,,,,,,,,서대문구청 푸른도시과,02-330-1395
,,서울특별시,서대문구,홍박소공원,37.601479,126.948915,허리돌리기,,,,,,,,,,서대문구청 푸른도시과,02-330-1395
,,서울특별시,서대문구,문화촌어린이공원,37.595177,126.94752,파도타기,,,,,,,,,,서대문구청 푸른도시과,02-330-1395
,,서울특별시,서대문구,문화촌어린이공원,37.595163,126.947533,사이클,,,,,,,,,,서대문구청 푸른도시과,02-330-1395
,,서울특별시,서대문구,고은소공원,37.587957,126.943011,파도타기,,,,,,,,,,서대문구청 푸른도시과,02-330-1395
,,서울특별시,서대문구,고은소공원,37.587937,126.943027,양팔줄당기기,,,,,,,,,,서대문구청 푸른도시과,02-330-1395
,,서울특별시,서대문구,고은소공원,37.587895,126.943032,사이클,,,,,,,,,,서대문구청 푸른도시과,02-330-1395
,,서울특별시,서대문구,고은소공원,37.587885,126.943019,허리돌리기,,,,,,,,,,서대문구청 푸른도시과,02-330-1395
,,서울특별시,서대문구,무궁화소공원,37.58417,126.947663,허리돌리기트윈,,,,,,,,,,서대문구청 푸른도시과,02-330-1395
,,서울특별시,서대문구,무궁화소공원,37.584152,126.947722,허리돌리기롤링,,,,,,,,,,서대문구청 푸른도시과,02-330-1395
,,서울특별시,서대문구,무궁화소공원,37.584135,126.94775,파도타기,,,,,,,,,,서대문구청 푸른도시과,02-330-1395
,,서울특별시,서대문구,행복한소공원,37.587165,126.948661,허리돌리기,,,,,,,,,,서대문구청 푸른도시과,02-330-1395
,,서울특별시,서대문구,행복한소공원,37.587148,126.94866,공중걷기,,,,,,,,,,서대문구청 푸른도시과,02-330-1395
,,서울특별시,서대문구,정원소공원,37.586401,126.932487,허리돌리기트윈,,,,,,,,,,서대문구청 푸른도시과,02-330-1395
,,서울특별시,서대문구,정원소공원,37.586386,126.932514,파도타기,,,,,,,,,,서대문구청 푸른도시과,02-330-1395
,,서울특별시,서대문구,정원소공원,37.586437,126.932459,허리돌리기롤링,,,,,,,,,,서대문구청 푸른도시과,02-330-1395
,,서울특별시,서대문구,정원소공원,37.586389,126.932519,공중걷기,,,,,,,,,,서대문구청 푸른도시과,02-330-1395
,,서울특별시,서대문구,답동소공원,37.593977,126.93384,등허리지압기,,,,,,,,,,서대문구청 푸른도시과,02-330-1395
,,서울특별시,서대문구,답동소공원,37.593955,126.933818,파도타기,,,,,,,,,,서대문구청 푸른도시과,02-330-1395
,,서울특별시,서대문구,답동소공원,37.593971,126.933819,공중걷기,,,,,,,,,,서대문구청 푸른도시과,02-330-1395
,,서울특별시,서대문구,답동소공원,37.593979,126.933794,사이클,,,,,,,,,,서대문구청 푸른도시과,02-330-1395
,,서울특별시,서대문구,하늘소공원,37.593868,126.941999,파도타기,,,,,,,,,,서대문구청 푸른도시과,02-330-1395
,,서울특별시,서대문구,하늘소공원,37.593862,126.942048,공중걷기,,,,,,,,,,서대문구청 푸른도시과,02-330-1395
,,서울특별시,서대문구,하늘소공원,37.593988,126.942091,허리돌리기롤링,,,,,,,,,,서대문구청 푸른도시과,02-330-1395
,,서울특별시,서대문구,하늘소공원,37.593947,126.942109,상체근육풀기,,,,,,,,,,서대문구청 푸른도시과,02-330-1395
,,서울특별시,서대문구,실락어린이공원,37.594583,126.943218,턱걸이,,,,,,,,,,서대문구청 푸른도시과,02-330-1395
,,서울특별시,서대문구,실락어린이공원,37.594575,126.943211,등허리지압기,,,,,,,,,,서대문구청 푸른도시과,02-330-1395
,,서울특별시,서대문구,실락어린이공원,37.594556,126.943233,다리지압,,,,,,,,,,서대문구청 푸른도시과,02-330-1395
,,서울특별시,서대문구,실락어린이공원,37.594499,126.943365,거꾸로매달리기,,,,,,,,,,서대문구청 푸른도시과,02-330-1395
,,서울특별시,서대문구,실락어린이공원,37.594475,126.943391,상체근육풀기,,,,,,,,,,서대문구청 푸른도시과,02-330-1395
,,서울특별시,서대문구,실락어린이공원,37.594463,126.943398,공중걷기,,,,,,,,,,서대문구청 푸른도시과,02-330-1395
,,서울특별시,서대문구,실락어린이공원,37.594431,126.943414,파도타기,,,,,,,,,,서대문구청 푸른도시과,02-330-1395
,,서울특별시,서대문구,실락어린이공원,37.59442,126.943413,윗몸일으키기,,,,,,,,,,서대문구청 푸른도시과,02-330-1395
,,서울특별시,서대문구,실락어린이공원,37.594112,126.942747,허리돌리기롤링,,,,,,,,,,서대문구청 푸른도시과,02-330-1395
,,서울특별시,서대문구,실락어린이공원,37.594051,126.942783,종합머신,,,,,,,,,,서대문구청 푸른도시과,02-330-1395
,,서울특별시,서대문구,실락어린이공원,37.59405,126.942592,파도타기,,,,,,,,,,서대문구청 푸른도시과,02-330-1395
,,서울특별시,서대문구,실락어린이공원,37.59406,126.942557,상체근육풀기,,,,,,,,,,서대문구청 푸른도시과,02-330-1395
,,서울특별시,서대문구,실락어린이공원,37.594037,126.942582,공중걷기,,,,,,,,,,서대문구청 푸른도시과,02-330-1395
,,서울특별시,서대문구,홍은3소공원,37.599775,126.943984,하체,,,,,,,,,,서대문구청 푸른도시과,02-330-1395
,,서울특별시,서대문구,홍은3소공원,37.599706,126.943932,하체,,,,,,,,,,서대문구청 푸른도시과,02-330-1395
,,서울특별시,서대문구,홍은동어린이공원,37.601725,126.950395,허리돌리기롤린,,,,,,,,,,서대문구청 푸른도시과,02-330-1395
,,서울특별시,서대문구,홍은동어린이공원,37.601681,126.95047,공중걷기,,,,,,,,,,서대문구청 푸른도시과,02-330-1395
,,서울특별시,서대문구,홍은동어린이공원,37.601678,126.95044,달리기,,,,,,,,,,서대문구청 푸른도시과,02-330-1395
,,서울특별시,서대문구,홍은동어린이공원,37.601706,126.950343,파도타기,,,,,,,,,,서대문구청 푸른도시과,02-330-1395
,,서울특별시,서대문구,연서어린이공원,37.572165,126.923434,파도타기,,,,,,,,,,서대문구청 푸른도시과,02-330-1395
,,서울특별시,서대문구,연서어린이공원,37.572159,126.923446,역기올리기,,,,,,,,,,서대문구청 푸른도시과,02-330-1395
,,서울특별시,서대문구,연서어린이공원,37.572152,126.923456,상체근육풀기,,,,,,,,,,서대문구청 푸른도시과,02-330-1395
,,서울특별시,서대문구,연서어린이공원,37.57215,126.923463,허리돌리기,,,,,,,,,,서대문구청 푸른도시과,02-330-1395
,,서울특별시,서대문구,연서어린이공원,37.572143,126.923473,자전거타기,,,,,,,,,,서대문구청 푸른도시과,02-330-1395
,,서울특별시,서대문구,한울타리소공원,37.559207,126.930105,파도타기,,,,,,,,,,서대문구청 푸른도시과,02-330-1395
,,서울특별시,서대문구,한울타리소공원,37.559196,126.930031,공중걷기,,,,,,,,,,서대문구청 푸른도시과,02-330-1395
,,서울특별시,서대문구,한울타리소공원,37.559192,126.93003,허리돌리기,,,,,,,,,,서대문구청 푸른도시과,02-330-1395
,,서울특별시,서대문구,한울타리소공원,37.559106,126.930068,상체근육풀기,,,,,,,,,,서대문구청 푸른도시과,02-330-1395
,,서울특별시,서대문구,창용소공원,37.560255,126.928589,공중걷기,,,,,,,,,,서대문구청 푸른도시과,02-330-1395
,,서울특별시,서대문구,창용소공원,37.560261,126.928555,파도타기,,,,,,,,,,서대문구청 푸른도시과,02-330-1395
,,서울특별시,서대문구,창용소공원,37.56027,126.928542,워밍암,,,,,,,,,,서대문구청 푸른도시과,02-330-1395
,,서울특별시,서대문구,창용소공원,37.56026,126.928571,허리돌리기,,,,,,,,,,서대문구청 푸른도시과,02-330-1395
,,서울특별시,서대문구,창용소공원,37.560257,126.928573,미니철봉,,,,,,,,,,서대문구청 푸른도시과,02-330-1395
,,서울특별시,서대문구,창용소공원,37.560275,126.92854,자전거타기,,,,,,,,,,서대문구청 푸른도시과,02-330-1395
,,서울특별시,서대문구,창천동골목공원,37.561013,126.931132,철봉,,,,,,,,,,서대문구청 푸른도시과,02-330-1395
,,서울특별시,서대문구,창천동골목공원,37.561057,126.931091,허리돌리기,,,,,,,,,,서대문구청 푸른도시과,02-330-1395
,,서울특별시,서대문구,창천동골목공원,37.560923,126.931275,공중걷기,,,,,,,,,,서대문구청 푸른도시과,02-330-1395
,,서울특별시,서대문구,창천동골목공원,37.561174,126.930963,상체근육풀기,,,,,,,,,,서대문구청 푸른도시과,02-330-1395
,,서울특별시,서대문구,창천동골목공원,37.561178,126.930945,파도타기,,,,,,,,,,서대문구청 푸른도시과,02-330-1395
,,서울특별시,서대문구,창천동골목공원,37.561054,126.931092,허리돌리기,,,,,,,,,,서대문구청 푸른도시과,02-330-1395
,,서울특별시,서대문구,창천동골목공원,37.560927,126.931268,양팔줄당기기,,,,,,,,,,서대문구청 푸른도시과,02-330-1395
,,서울특별시,서대문구,창천동골목공원,37.560923,126.931263,풀웨이트,,,,,,,,,,서대문구청 푸른도시과,02-330-1395
,,서울특별시,서대문구,둥글레소공원,37.563092,126.930196,허리돌리기,,,,,,,,,,서대문구청 푸른도시과,02-330-1395
,,서울특별시,서대문구,둥글레소공원,37.563095,126.93019,자전거타기,,,,,,,,,,서대문구청 푸른도시과,02-330-1395
,,서울특별시,서대문구,둥글레소공원,37.563076,126.930144,다리뻗치기,,,,,,,,,,서대문구청 푸른도시과,02-330-1395
,,서울특별시,서대문구,둥글레소공원,37.563074,126.93014,역기올리기,,,,,,,,,,서대문구청 푸른도시과,02-330-1395
,,서울특별시,서대문구,둥글레소공원,37.56306,126.930097,파도타기,,,,,,,,,,서대문구청 푸른도시과,02-330-1395
,,서울특별시,서대문구,둥글레소공원,37.563063,126.930095,역기올리기,,,,,,,,,,서대문구청 푸른도시과,02-330-1395
,,서울특별시,서대문구,둥글레소공원,37.563051,126.930058,등허리지압기,,,,,,,,,,서대문구청 푸른도시과,02-330-1395
,,서울특별시,서대문구,둥글레소공원,37.563054,126.930053,공중걷기,,,,,,,,,,서대문구청 푸른도시과,02-330-1395
,,서울특별시,서대문구,둥글레소공원,37.563046,126.930028,자전거타기,,,,,,,,,,서대문구청 푸른도시과,02-330-1395
,,서울특별시,서대문구,둥글레소공원,37.563046,126.930025,달리기,,,,,,,,,,서대문구청 푸른도시과,02-330-1395
,,서울특별시,서대문구,정연소공원,37.582602,126.927078,허리돌리기롤링,,,,,,,,,,서대문구청 푸른도시과,02-330-1395
,,서울특별시,서대문구,정연소공원,37.582606,126.927076,상체근육풀기,,,,,,,,,,서대문구청 푸른도시과,02-330-1395
,,서울특별시,서대문구,정연소공원,37.582616,126.927061,파도타기,,,,,,,,,,서대문구청 푸른도시과,02-330-1395
,,서울특별시,서대문구,홍연어린이공원,37.580119,126.926773,공중걷기,,,,,,,,,,서대문구청 푸른도시과,02-330-1395
,,서울특별시,서대문구,홍연어린이공원,37.580125,126.926808,허리돌리기롤링,,,,,,,,,,서대문구청 푸른도시과,02-330-1395
,,서울특별시,서대문구,홍연어린이공원,37.580194,126.926755,상체근육풀기,,,,,,,,,,서대문구청 푸른도시과,02-330-1395
,,서울특별시,서대문구,홍연어린이공원,37.580181,126.926827,사이클,,,,,,,,,,서대문구청 푸른도시과,02-330-1395
,,서울특별시,서대문구,연남어린이공원,37.578426,126.925358,파도타기,,,,,,,,,,서대문구청 푸른도시과,02-330-1395
,,서울특별시,서대문구,연남어린이공원,37.578392,126.925301,상체근육풀기,,,,,,,,,,서대문구청 푸른도시과,02-330-1395
,,서울특별시,서대문구,연남어린이공원,37.578367,126.925277,달리기,,,,,,,,,,서대문구청 푸른도시과,02-330-1395
,,서울특별시,서대문구,연남어린이공원,37.57832,126.925267,허리돌리기롤링,,,,,,,,,,서대문구청 푸른도시과,02-330-1395
,,서울특별시,서대문구,홍남어린이공원,37.578138,126.929325,허리돌리기롤링,,,,,,,,,,서대문구청 푸른도시과,02-330-1395
,,서울특별시,서대문구,홍남어린이공원,37.578068,126.92933,상체근육풀기,,,,,,,,,,서대문구청 푸른도시과,02-330-1395
,,서울특별시,서대문구,홍남어린이공원,37.578045,126.929305,파도타기,,,,,,,,,,서대문구청 푸른도시과,02-330-1395
,,서울특별시,서대문구,홍은2동주민쉼터,37.583414,126.936481,공중걷기,,,,,,,,,,서대문구청 푸른도시과,02-330-1395
,,서울특별시,서대문구,홍은2동주민쉼터,37.583441,126.936415,거꾸로매달리기,,,,,,,,,,서대문구청 푸른도시과,02-330-1395
,,서울특별시,서대문구,홍은2동주민쉼터,37.583411,126.936432,다리스트레칭,,,,,,,,,,서대문구청 푸른도시과,02-330-1395
,,서울특별시,서대문구,홍은2동주민쉼터,37.58339,126.936472,허리돌리기롤링,,,,,,,,,,서대문구청 푸른도시과,02-330-1395
,,서울특별시,서대문구,푸른소공원,37.584661,126.937977,허리돌리기롤링,,,,,,,,,,서대문구청 푸른도시과,02-330-1395
,,서울특별시,서대문구,푸른소공원,37.584599,126.938049,다리찢기,,,,,,,,,,서대문구청 푸른도시과,02-330-1395
,,서울특별시,서대문구,푸른소공원,37.584568,126.938085,상체근육풀기,,,,,,,,,,서대문구청 푸른도시과,02-330-1395
,,서울특별시,서대문구,만우소공원,37.563357,126.957595,허리돌리기,,,,,,,,,,서대문구청 푸른도시과,02-330-1395
,,서울특별시,서대문구,만우소공원,37.563377,126.957622,파도타기,,,,,,,,,,서대문구청 푸른도시과,02-330-1395
,,서울특별시,서대문구,만우소공원,37.563379,126.957632,공중걷기,,,,,,,,,,서대문구청 푸른도시과,02-330-1395
,,서울특별시,서대문구,만우소공원,37.563364,126.957648,상체근육풀기워밍암,,,,,,,,,,서대문구청 푸른도시과,02-330-1395
,,서울특별시,서대문구,지용소공원,37.563496,126.955206,하이풀리,,,,,,,,,,서대문구청 푸른도시과,02-330-1395
,,서울특별시,서대문구,지용소공원,37.563489,126.955249,공중걷기,,,,,,,,,,서대문구청 푸른도시과,02-330-1395
,,서울특별시,서대문구,지용소공원,37.563511,126.955228,자전거타기입식헬스싸이클,,,,,,,,,,서대문구청 푸른도시과,02-330-1395
,,서울특별시,서대문구,지용소공원,37.563523,126.955242,허리돌리기1,,,,,,,,,,서대문구청 푸른도시과,02-330-1395
,,서울특별시,서대문구,지용소공원,37.563487,126.955303,허리돌리기2,,,,,,,,,,서대문구청 푸른도시과,02-330-1395
,,서울특별시,서대문구,지용소공원,37.563488,126.9553,미니평행봉,,,,,,,,,,서대문구청 푸른도시과,02-330-1395
,,서울특별시,서대문구,굴레방소공원,37.558407,126.95801,공중걷기크로스컨트리,,,,,,,,,,서대문구청 푸른도시과,02-330-1395
,,서울특별시,서대문구,굴레방소공원,37.558414,126.958024,허리돌리기,,,,,,,,,,서대문구청 푸른도시과,02-330-1395
,,서울특별시,서대문구,굴레방소공원,37.558405,126.958027,상체근육풀기,,,,,,,,,,서대문구청 푸른도시과,02-330-1395
,,서울특별시,서대문구,북성어린이공원,37.558546,126.95188,파도타기롤링웨이스트,,,,,,,,,,서대문구청 푸른도시과,02-330-1395
,,서울특별시,서대문구,북성어린이공원,37.558551,126.95184,레그프레스,,,,,,,,,,서대문구청 푸른도시과,02-330-1395
,,서울특별시,서대문구,너나들이쉼터,37.558351,126.955279,풀웨이트,,,,,,,,,,서대문구청 푸른도시과,02-330-1395
,,서울특별시,서대문구,너나들이쉼터,37.558387,126.955309,레그프레스,,,,,,,,,,서대문구청 푸른도시과,02-330-1395
,,서울특별시,서대문구,너나들이쉼터,37.558401,126.955283,트윈워밍암상체근육풀기,,,,,,,,,,서대문구청 푸른도시과,02-330-1395
,,서울특별시,서대문구,너나들이쉼터,37.558367,126.955291,롤링웨이스트파도타기,,,,,,,,,,서대문구청 푸른도시과,02-330-1395
,,서울특별시,서대문구,봉원소공원,37.569385,126.94551,허리돌리기롤링,,,,,,,,,,서대문구청 푸른도시과,02-330-1395
,,서울특별시,서대문구,봉원소공원,37.569355,126.945514,공중걷기,,,,,,,,,,서대문구청 푸른도시과,02-330-1395
,,서울특별시,서대문구,봉원소공원,37.569404,126.945476,상체근육풀기,,,,,,,,,,서대문구청 푸른도시과,02-330-1395
,,서울특별시,서대문구,봉원소공원,37.569424,126.945453,파도타기,,,,,,,,,,서대문구청 푸른도시과,02-330-1395
,,서울특별시,서대문구,충정로3가쉼터,37.560493,126.960864,윗몸일으키기,,,,,,,,,,서대문구청 푸른도시과,02-330-1395
,,서울특별시,서대문구,충정로3가쉼터,37.56056,126.96086,공중걷기,,,,,,,,,,서대문구청 푸른도시과,02-330-1395
,,서울특별시,서대문구,충정로3가쉼터,37.560599,126.960878,상체근육풀기,,,,,,,,,,서대문구청 푸른도시과,02-330-1395
,,서울특별시,서대문구,충정로3가쉼터,37.560587,126.9609,허리돌리기,,,,,,,,,,서대문구청 푸른도시과,02-330-1395
,,서울특별시,서대문구,충정로3가쉼터,37.560621,126.960918,거꾸로매달리기,,,,,,,,,,서대문구청 푸른도시과,02-330-1395
,,서울특별시,서대문구,동명여중담장앞,37.568271,126.962239,허리돌리기롤링,,,,,,,,,,서대문구청 푸른도시과,02-330-1395
,,서울특별시,서대문구,동명여중담장앞,37.568301,126.962269,공중걷기,,,,,,,,,,서대문구청 푸른도시과,02-330-1395
,,서울특별시,서대문구,동명여중담장앞,37.568259,126.962368,사이클,,,,,,,,,,서대문구청 푸른도시과,02-330-1395
,,서울특별시,서대문구,동명여중담장앞,37.56827,126.962334,풀웨이트,,,,,,,,,,서대문구청 푸른도시과,02-330-1395
,,서울특별시,서대문구,동명여중담장앞,37.568318,126.9623,체어웨이트,,,,,,,,,,서대문구청 푸른도시과,02-330-1395
,,서울특별시,서대문구,독립문어린이공원,37.571563,126.96031,파도타기,,,,,,,,,,서대문구청 푸른도시과,02-330-1395
,,서울특별시,서대문구,독립문어린이공원,37.571566,126.960304,공중걷기,,,,,,,,,,서대문구청 푸른도시과,02-330-1395
,,서울특별시,서대문구,독립문어린이공원,37.571508,126.960327,허리돌리기롤링,,,,,,,,,,서대문구청 푸른도시과,02-330-1395
,,서울특별시,서대문구,독립문어린이공원,37.571503,126.960324,등허리지압기,,,,,,,,,,서대문구청 푸른도시과,02-330-1395
,,서울특별시,서대문구,독립문어린이공원,37.571509,126.960262,허리돌리기롤링,,,,,,,,,,서대문구청 푸른도시과,02-330-1395
,,서울특별시,서대문구,독립문어린이공원,37.57154,126.960235,상체근육풀기,,,,,,,,,,서대문구청 푸른도시과,02-330-1395
,,서울특별시,서대문구,독립문어린이공원,37.57157,126.960179,레그프레스,,,,,,,,,,서대문구청 푸른도시과,02-330-1395
,,서울특별시,서대문구,독립문어린이공원,37.571562,126.960143,공중걷기,,,,,,,,,,서대문구청 푸른도시과,02-330-1395
,,서울특별시,서대문구,가재울어린이공원,37.572869,126.91938,허리돌리기,,,,,,,,,,서대문구청 푸른도시과,02-330-1395
,,서울특별시,서대문구,가재울어린이공원,37.572799,126.919316,공중걷기,,,,,,,,,,서대문구청 푸른도시과,02-330-1395
,,서울특별시,서대문구,가재울어린이공원,37.572832,126.919348,역기올리기,,,,,,,,,,서대문구청 푸른도시과,02-330-1395
,,서울특별시,서대문구,모래내잔디쉼터,37.570105,126.916543,공중걷기,,,,,,,,,,서대문구청 푸른도시과,02-330-1395
,,서울특별시,서대문구,모래내잔디쉼터,37.570092,126.916553,상체근육풀기워밍암,,,,,,,,,,서대문구청 푸른도시과,02-330-1395
,,서울특별시,서대문구,모래내잔디쉼터,37.570105,126.916578,허리돌리기,,,,,,,,,,서대문구청 푸른도시과,02-330-1395
,,서울특별시,서대문구,모래내잔디쉼터,37.570114,126.91659,파도타기,,,,,,,,,,서대문구청 푸른도시과,02-330-1395
,,서울특별시,서대문구,솟대어린이공원,37.572906,126.912764,거꾸로매달리기,,,,,,,,,,서대문구청 푸른도시과,02-330-1395
,,서울특별시,서대문구,솟대어린이공원,37.572906,126.91278,공중걷기,,,,,,,,,,서대문구청 푸른도시과,02-330-1395
,,서울특별시,서대문구,솟대어린이공원,37.572904,126.912796,파도타기,,,,,,,,,,서대문구청 푸른도시과,02-330-1395
,,서울특별시,서대문구,솟대어린이공원,37.572892,126.912792,자전거달리기,,,,,,,,,,서대문구청 푸른도시과,02-330-1395
,,서울특별시,서대문구,솟대어린이공원,37.572907,126.912818,허리돌리기,,,,,,,,,,서대문구청 푸른도시과,02-330-1395
,,서울특별시,서대문구,솟대어린이공원,37.572904,126.912838,상체근육풀기워밍암,,,,,,,,,,서대문구청 푸른도시과,02-330-1395
,,서울특별시,서대문구,나비울어린이공원,37.57472,126.909731,다리뻗치기,,,,,,,,,,서대문구청 푸른도시과,02-330-1395
,,서울특별시,서대문구,나비울어린이공원,37.574715,126.909763,공중걷기,,,,,,,,,,서대문구청 푸른도시과,02-330-1395
,,서울특별시,서대문구,나비울어린이공원,37.574712,126.909774,자전거타기,,,,,,,,,,서대문구청 푸른도시과,02-330-1395
,,서울특별시,서대문구,나비울어린이공원,37.574718,126.909823,허리돌리기,,,,,,,,,,서대문구청 푸른도시과,02-330-1395
,,서울특별시,서대문구,나비울어린이공원,37.574719,126.90986,상체근육풀기워밍암,,,,,,,,,,서대문구청 푸른도시과,02-330-1395
,,서울특별시,서대문구,너른바위어린이공원,37.557933,126.952776,허리돌리기롤링웨이스트,,,,,,,,,,서대문구청 푸른도시과,02-330-1395
,,서울특별시,서대문구,너른바위어린이공원,37.557951,126.952793,상체근육풀기트윈워밍암,,,,,,,,,,서대문구청 푸른도시과,02-330-1395
,,서울특별시,서대문구,너른바위어린이공원,37.557903,126.952735,풀웨이트,,,,,,,,,,서대문구청 푸른도시과,02-330-1395
,,서울특별시,서대문구,너른바위어린이공원,37.557871,126.952726,크로스컨트리공중걷기,,,,,,,,,,서대문구청 푸른도시과,02-330-1395
,,서울특별시,서대문구,송죽소공원,37.585809,126.937355,허리돌리기롤링,,,,,,,,,,서대문구청 푸른도시과,02-330-1395
,,서울특별시,서대문구,송죽소공원,37.585791,126.937367,다리찢기,,,,,,,,,,서대문구청 푸른도시과,02-330-1395
,,서울특별시,서대문구,송죽소공원,37.585778,126.937391,윗몸일으키기,,,,,,,,,,서대문구청 푸른도시과,02-330-1395
,,서울특별시,서대문구,조리소공원,37.594206,126.951177,파도타기,,,,,,,,,,서대문구청 푸른도시과,02-330-1395
,,서울특별시,서대문구,조리소공원,37.594206,126.951109,상체근육풀기,,,,,,,,,,서대문구청 푸른도시과,02-330-1395
,,서울특별시,서대문구,조리소공원,37.594224,126.9511,공중걷기,,,,,,,,,,서대문구청 푸른도시과,02-330-1395
,,서울특별시,서대문구,조리소공원,37.594245,126.951057,어깨근육풀기,,,,,,,,,,서대문구청 푸른도시과,02-330-1395
,,서울특별시,서대문구,인화소공원,37.593269,126.950151,허리돌리기롤링,,,,,,,,,,서대문구청 푸른도시과,02-330-1395
,,서울특별시,서대문구,한마루소공원,37.594122,126.949697,어깨근육풀기,,,,,,,,,,서대문구청 푸른도시과,02-330-1395
,,서울특별시,서대문구,한마루소공원,37.594096,126.949733,상체근육풀기,,,,,,,,,,서대문구청 푸른도시과,02-330-1395
,,서울특별시,서대문구,한마루소공원,37.594082,126.949755,허리돌리기롤링,,,,,,,,,,서대문구청 푸른도시과,02-330-1395
,,서울특별시,서대문구,한마루소공원,37.594058,126.949778,풀웨이트,,,,,,,,,,서대문구청 푸른도시과,02-330-1395
,,서울특별시,서대문구,한마루소공원,37.594048,126.949781,공중걷기,,,,,,,,,,서대문구청 푸른도시과,02-330-1395
,,서울특별시,서대문구,한마루소공원,37.594,126.949776,파도타기,,,,,,,,,,서대문구청 푸른도시과,02-330-1395
,,서울특별시,서대문구,한마루소공원,37.593983,126.949786,거꾸로매달리기,,,,,,,,,,서대문구청 푸른도시과,02-330-1395
,,서울특별시,서대문구,문화소공원,37.59438,126.948811,사이클,,,,,,,,,,서대문구청 푸른도시과,02-330-1395
,,서울특별시,서대문구,문화소공원,37.59437,126.9488,파도타기,,,,,,,,,,서대문구청 푸른도시과,02-330-1395
,,서울특별시,서대문구,문화소공원,37.594383,126.94879,허리돌리기롤링,,,,,,,,,,서대문구청 푸른도시과,02-330-1395
,,서울특별시,서대문구,문화소공원,37.594405,126.948759,공중걷기,,,,,,,,,,서대문구청 푸른도시과,02-330-1395
,,서울특별시,서대문구,가좌어린이공원,37.575836,126.920301,자전거달리기,,,,,,,,,,서대문구청 푸른도시과,02-330-1395
,,서울특별시,서대문구,가좌어린이공원,37.575831,126.92032,파도타기,,,,,,,,,,서대문구청 푸른도시과,02-330-1395
,,서울특별시,서대문구,가좌어린이공원,37.575823,126.920311,역기올리기,,,,,,,,,,서대문구청 푸른도시과,02-330-1395
,,서울특별시,서대문구,가좌어린이공원,37.575852,126.920342,워밍암/상체근육풀기,,,,,,,,,,서대문구청 푸른도시과,02-330-1395
,,서울특별시,서대문구,가좌어린이공원,37.575861,126.920352,허리돌리기,,,,,,,,,,서대문구청 푸른도시과,02-330-1395
,,서울특별시,서대문구,삼각소공원,37.576457,126.9208,허리돌리기,,,,,,,,,,서대문구청 푸른도시과,02-330-1395
,,서울특별시,서대문구,삼각소공원,37.57645,126.920796,워밍암,,,,,,,,,,서대문구청 푸른도시과,02-330-1395
,,서울특별시,서대문구,삼각소공원,37.576455,126.920794,공중걷기,,,,,,,,,,서대문구청 푸른도시과,02-330-1395
,,서울특별시,서대문구,삼각소공원,37.576453,126.920793,다리뻗치기,,,,,,,,,,서대문구청 푸른도시과,02-330-1395
,,서울특별시,서대문구,삼각소공원,37.576453,126.920785,거꾸로매달리기,,,,,,,,,,서대문구청 푸른도시과,02-330-1395
,,서울특별시,서대문구,북가좌정원지구,37.579798,126.916936,체어웨이트,,,,,,,,,,서대문구청 푸른도시과,02-330-1395
,,서울특별시,서대문구,북가좌정원지구,37.579819,126.916931,공중걷기,,,,,,,,,,서대문구청 푸른도시과,02-330-1395
,,서울특별시,서대문구,북가좌정원지구,37.57982,126.916907,레그스트레치,,,,,,,,,,서대문구청 푸른도시과,02-330-1395
,,서울특별시,서대문구,북가좌정원지구,37.579819,126.916899,허리돌리기,,,,,,,,,,서대문구청 푸른도시과,02-330-1395
,,서울특별시,서대문구,북가좌정원지구,37.579824,126.916916,워밍암/상체근육풀기,,,,,,,,,,서대문구청 푸른도시과,02-330-1395
,,서울특별시,서대문구,남가좌동어린이공원,37.579552,126.919667,상체근육풀기,,,,,,,,,,서대문구청 푸른도시과,02-330-1395
,,서울특별시,서대문구,남가좌동어린이공원,37.579529,126.919687,역기내리기,,,,,,,,,,서대문구청 푸른도시과,02-330-1395
,,서울특별시,서대문구,남가좌동어린이공원,37.57955,126.919675,파도타기,,,,,,,,,,서대문구청 푸른도시과,02-330-1395
,,서울특별시,서대문구,남가좌동어린이공원,37.579542,126.919731,파도타기,,,,,,,,,,서대문구청 푸른도시과,02-330-1395
,,서울특별시,서대문구,남가좌동어린이공원,37.57955,126.919757,역기내리기,,,,,,,,,,서대문구청 푸른도시과,02-330-1395
,,서울특별시,서대문구,남가좌동어린이공원,37.579554,126.919767,역기올리기,,,,,,,,,,서대문구청 푸른도시과,02-330-1395
,,서울특별시,서대문구,남가좌동어린이공원,37.579561,126.919784,허리돌리기,,,,,,,,,,서대문구청 푸른도시과,02-330-1395
,,서울특별시,서대문구,개나리어린이공원,37.577237,126.916977,달리기유형,,,,,,,,,,서대문구청 푸른도시과,02-330-1395
,,서울특별시,서대문구,개나리어린이공원,37.577245,126.916981,공중걷기,,,,,,,,,,서대문구청 푸른도시과,02-330-1395
,,서울특별시,서대문구,개나리어린이공원,37.577247,126.916971,거꾸로매달리기,,,,,,,,,,서대문구청 푸른도시과,02-330-1395
,,서울특별시,서대문구,개나리어린이공원,37.578614,126.918114,풀웨이트,,,,,,,,,,서대문구청 푸른도시과,02-330-1395
,,서울특별시,서대문구,개나리어린이공원,37.578664,126.918096,파도타기,,,,,,,,,,서대문구청 푸른도시과,02-330-1395
,,서울특별시,서대문구,개나리어린이공원,37.578646,126.918074,상체근육풀기,,,,,,,,,,서대문구청 푸른도시과,02-330-1395
,,서울특별시,서대문구,개나리어린이공원,37.578626,126.918055,자전거달리기,,,,,,,,,,서대문구청 푸른도시과,02-330-1395
,,서울특별시,서대문구,개나리어린이공원,37.578595,126.918064,허리돌리기,,,,,,,,,,서대문구청 푸른도시과,02-330-1395
,,서울특별시,서대문구,개나리어린이공원,37.578589,126.918063,옆허리돌리기,,,,,,,,,,서대문구청 푸른도시과,02-330-1395
,,서울특별시,서대문구,개나리어린이공원,37.578641,126.918071,스트레칭로라,,,,,,,,,,서대문구청 푸른도시과,02-330-1395
,,서울특별시,서대문구,은가어린이공원,37.5826,126.919482,워밍암,,,,,,,,,,서대문구청 푸른도시과,02-330-1395
,,서울특별시,서대문구,은가어린이공원,37.582602,126.919451,공중걷기,,,,,,,,,,서대문구청 푸른도시과,02-330-1395
,,서울특별시,서대문구,은가어린이공원,37.582608,126.919419,파도타기,,,,,,,,,,서대문구청 푸른도시과,02-330-1395
,,서울특별시,서대문구,은가어린이공원,37.582613,126.919382,허리돌리기,,,,,,,,,,서대문구청 푸른도시과,02-330-1395
,,서울특별시,서대문구,거꾸로어린이공원,37.585366,126.913362,파도타기,,,,,,,,,,서대문구청 푸른도시과,02-330-1395
,,서울특별시,서대문구,거꾸로어린이공원,37.585361,126.913373,체스트풀머신,,,,,,,,,,서대문구청 푸른도시과,02-330-1395
,,서울특별시,서대문구,거꾸로어린이공원,37.585376,126.913353,워밍암/상체근육풀기,,,,,,,,,,서대문구청 푸른도시과,02-330-1395
,,서울특별시,서대문구,거꾸로어린이공원,37.58537,126.913351,허리돌리기,,,,,,,,,,서대문구청 푸른도시과,02-330-1395
,,서울특별시,서대문구,거꾸로어린이공원,37.58537,126.913355,공중걷기,,,,,,,,,,서대문구청 푸른도시과,02-330-1395
,,서울특별시,서대문구,동그라미쉼터,37.558639,126.948048,공중걷기,,,,,,,,,,서대문구청 푸른도시과,02-330-1395
,,서울특별시,서대문구,동그라미쉼터,37.558642,126.948054,허리돌리기,,,,,,,,,,서대문구청 푸른도시과,02-330-1395
,,서울특별시,서대문구,동그라미쉼터,37.558641,126.948061,사이클,,,,,,,,,,서대문구청 푸른도시과,02-330-1395
,,서울특별시,서대문구,동그라미쉼터,37.55864,126.94807,워밍암/상체근육풀기,,,,,,,,,,서대문구청 푸른도시과,02-330-1395
,,서울특별시,서대문구,신가어린이공원,37.580202,126.908288,워밍암/상체근육풀기,,,,,,,,,,서대문구청 푸른도시과,02-330-1395
,,서울특별시,서대문구,신가어린이공원,37.580194,126.908284,허리돌리기,,,,,,,,,,서대문구청 푸른도시과,02-330-1395
,,서울특별시,서대문구,신가어린이공원,37.580176,126.908279,공중걷기,,,,,,,,,,서대문구청 푸른도시과,02-330-1395
,,서울특별시,서대문구,신가어린이공원,37.580217,126.908302,역기내리기,,,,,,,,,,서대문구청 푸른도시과,02-330-1395
,,서울특별시,서대문구,신가어린이공원,37.580225,126.908311,파도타기,,,,,,,,,,서대문구청 푸른도시과,02-330-1395
,,서울특별시,서대문구,신가어린이공원,37.580245,126.908332,로프줄당기기,,,,,,,,,,서대문구청 푸른도시과,02-330-1395
,,서울특별시,서대문구,신가어린이공원,37.580261,126.90834,헬스입식싸이클,,,,,,,,,,서대문구청 푸른도시과,02-330-1395
,,서울특별시,서대문구,까치소공원,37.579101,126.907017,워밍암/상체근육풀기,,,,,,,,,,서대문구청 푸른도시과,02-330-1395
,,서울특별시,서대문구,까치소공원,37.57914,126.907011,허리돌리기,,,,,,,,,,서대문구청 푸른도시과,02-330-1395
,,서울특별시,서대문구,옥천소공원,37.596209,126.955635,허리돌리기롤링,,,,,,,,,,서대문구청 푸른도시과,02-330-1395
,,서울특별시,서대문구,옥천소공원,37.596249,126.955688,공중걷기,,,,,,,,,,서대문구청 푸른도시과,02-330-1395
,,서울특별시,서대문구,옥천소공원,37.596236,126.955666,옥천소공원상체근육풀기,,,,,,,,,,서대문구청 푸른도시과,02-330-1395
,,서울특별시,서대문구,옥천소공원,37.59624,126.955654,거꾸로매달리기,,,,,,,,,,서대문구청 푸른도시과,02-330-1395
,,서울특별시,서대문구,옥천소공원,37.596241,126.955614,파도타기,,,,,,,,,,서대문구청 푸른도시과,02-330-1395
,,서울특별시,서대문구,옥천소공원,37.596236,126.955578,풀웨이트,,,,,,,,,,서대문구청 푸른도시과,02-330-1395
,,서울특별시,서대문구,옥천소공원,37.59625,126.955523,턱걸이,,,,,,,,,,서대문구청 푸른도시과,02-330-1395
,,서울특별시,서대문구,자하문폐가압장휴식공간,37.596671,126.950853,체어풀,,,,,,,,,,서대문구청 푸른도시과,02-330-1395
,,서울특별시,서대문구,자하문폐가압장휴식공간,37.596662,126.950933,등허리지압기,,,,,,,,,,서대문구청 푸른도시과,02-330-1395
,,서울특별시,서대문구,자하문폐가압장휴식공간,37.596642,126.950957,레그프레스,,,,,,,,,,서대문구청 푸른도시과,02-330-1395
,,서울특별시,서대문구,자하문폐가압장휴식공간,37.59657,126.950943,상체근육풀기,,,,,,,,,,서대문구청 푸른도시과,02-330-1395
,,서울특별시,서대문구,자하문폐가압장휴식공간,37.596512,126.95092,허리돌리기롤링,,,,,,,,,,서대문구청 푸른도시과,02-330-1395
,,서울특별시,서대문구,자하문폐가압장휴식공간,37.596462,126.950928,파도타기,,,,,,,,,,서대문구청 푸른도시과,02-330-1395
,,서울특별시,서대문구,홍이소공원,37.598036,126.950419,파도타기,,,,,,,,,,서대문구청 푸른도시과,02-330-1395
,,서울특별시,서대문구,홍이소공원,37.598025,126.950457,허리돌리기롤링,,,,,,,,,,서대문구청 푸른도시과,02-330-1395
,,서울특별시,서대문구,홍이소공원,37.597981,126.950463,공중걷기,,,,,,,,,,서대문구청 푸른도시과,02-330-1395
,,서울특별시,서대문구,홍이소공원,37.597968,126.950487,달리기유형,,,,,,,,,,서대문구청 푸른도시과,02-330-1395
,,서울특별시,서대문구,포방골소공원,37.599812,126.950625,상체근육풀기,,,,,,,,,,서대문구청 푸른도시과,02-330-1395
,,서울특별시,서대문구,포방골소공원,37.599807,126.950635,공중걷기,,,,,,,,,,서대문구청 푸른도시과,02-330-1395
,,서울특별시,서대문구,포방골소공원,37.599809,126.950646,파도타기,,,,,,,,,,서대문구청 푸른도시과,02-330-1395
,,서울특별시,서대문구,포방골소공원,37.599795,126.950681,허리돌리기롤링,,,,,,,,,,서대문구청 푸른도시과,02-330-1395
,,서울특별시,서대문구,포방골소공원,37.599801,126.950671,다리찢기,,,,,,,,,,서대문구청 푸른도시과,02-330-1395
,,서울특별시,서대문구,명수어린이공원,37.559866,126.950751,하늘걷기,,,,,,,,,,서대문구청 푸른도시과,02-330-1395
,,서울특별시,서대문구,명수어린이공원,37.559886,126.950772,온몸근육풀기,,,,,,,,,,서대문구청 푸른도시과,02-330-1395
,,서울특별시,서대문구,명수어린이공원,37.559932,126.950769,온몸지압기,,,,,,,,,,서대문구청 푸른도시과,02-330-1395
,,서울특별시,서대문구,명수어린이공원,37.559998,126.950739,입식사이클,,,,,,,,,,서대문구청 푸른도시과,02-330-1395
,,서울특별시,서대문구,홍제근린공원,37.594072,126.951887,풀웨이트,,,,,,,,,,서대문구청 푸른도시과,02-330-1395
,,서울특별시,서대문구,홍제근린공원,37.594098,126.951875,파도타기,,,,,,,,,,서대문구청 푸른도시과,02-330-1395
,,서울특별시,서대문구,홍제근린공원,37.594075,126.951888,온몸역기올리기,,,,,,,,,,서대문구청 푸른도시과,02-330-1395
,,서울특별시,서대문구,홍제근린공원,37.594098,126.95192,허리돌리기롤링,,,,,,,,,,서대문구청 푸른도시과,02-330-1395
,,서울특별시,서대문구,홍제근린공원,37.593643,126.952206,레그프레스,,,,,,,,,,서대문구청 푸른도시과,02-330-1395
,,서울특별시,서대문구,홍제근린공원,37.593571,126.952256,상체근육풀기,,,,,,,,,,서대문구청 푸른도시과,02-330-1395
,,서울특별시,서대문구,홍제근린공원,37.593563,126.952241,달리기유형,,,,,,,,,,서대문구청 푸른도시과,02-330-1395
,,서울특별시,서대문구,홍제근린공원,37.593531,126.952203,하체,,,,,,,,,,서대문구청 푸른도시과,02-330-1395
,,서울특별시,서대문구,홍제근린공원,37.593546,126.952179,공중걷기,,,,,,,,,,서대문구청 푸른도시과,02-330-1395
,,서울특별시,서대문구,홍제근린공원,37.594172,126.953162,거꾸로매달리기,,,,,,,,,,서대문구청 푸른도시과,02-330-1395
,,서울특별시,서대문구,홍제근린공원,37.594181,126.95312,온몸역기내리기,,,,,,,,,,서대문구청 푸른도시과,02-330-1395
,,서울특별시,서대문구,홍제근린공원,37.594209,126.953103,등허리지압기,,,,,,,,,,서대문구청 푸른도시과,02-330-1395
,,서울특별시,서대문구,홍제근린공원,37.59424,126.953113,파도타기,,,,,,,,,,서대문구청 푸른도시과,02-330-1395
,,서울특별시,서대문구,복주산근린공원,37.561475,126.954028,역기내리기,,,,,,,,,,서대문구청 푸른도시과,02-330-1395
,,서울특별시,서대문구,복주산근린공원,37.561495,126.954044,달리기유형,,,,,,,,,,서대문구청 푸른도시과,02-330-1395
,,서울특별시,서대문구,복주산근린공원,37.56151,126.95402,역기내리기,,,,,,,,,,서대문구청 푸른도시과,02-330-1395
,,서울특별시,서대문구,복주산근린공원,37.561476,126.954115,공중걷기,,,,,,,,,,서대문구청 푸른도시과,02-330-1395
,,서울특별시,서대문구,복주산근린공원,37.5615,126.95411,자유평행봉,,,,,,,,,,서대문구청 푸른도시과,02-330-1395
,,서울특별시,서대문구,복주산근린공원,37.561523,126.954104,윗몸일으키기,,,,,,,,,,서대문구청 푸른도시과,02-330-1395
,,서울특별시,서대문구,서대문독립공원,37.575489,126.954613,허리돌리기롤링,,,,,,,,,,서대문구청 푸른도시과,02-330-1395
,,서울특별시,서대문구,서대문독립공원,37.575487,126.954621,허리돌리기롤링,,,,,,,,,,서대문구청 푸른도시과,02-330-1395
,,서울특별시,서대문구,서대문독립공원,37.575526,126.95467,등허리지압기,,,,,,,,,,서대문구청 푸른도시과,02-330-1395
,,서울특별시,서대문구,서대문독립공원,37.575549,126.954697,상체근육풀기,,,,,,,,,,서대문구청 푸른도시과,02-330-1395
,,서울특별시,서대문구,서대문독립공원,37.575563,126.954684,풀웨이트,,,,,,,,,,서대문구청 푸른도시과,02-330-1395
,,서울특별시,서대문구,서대문독립공원,37.575609,126.954745,공중걷기,,,,,,,,,,서대문구청 푸른도시과,02-330-1395
,,서울특별시,서대문구,서대문독립공원,37.575633,126.954758,거꾸로매달리기,,,,,,,,,,서대문구청 푸른도시과,02-330-1395
,,서울특별시,서대문구,서대문독립공원,37.575011,126.954508,허리돌리기롤링,,,,,,,,,,서대문구청 푸른도시과,02-330-1395
,,서울특별시,서대문구,서대문독립공원,37.575042,126.954664,허리돌리기롤링,,,,,,,,,,서대문구청 푸른도시과,02-330-1395
,,서울특별시,서대문구,서대문독립공원,37.574946,126.954702,풀웨이트,,,,,,,,,,서대문구청 푸른도시과,02-330-1395
,,서울특별시,서대문구,서대문독립공원,37.574922,126.95471,윗몸일으키기,,,,,,,,,,서대문구청 푸른도시과,02-330-1395
,,서울특별시,서대문구,서대문독립공원,37.574896,126.954786,허리돌리기롤링,,,,,,,,,,서대문구청 푸른도시과,02-330-1395
,,서울특별시,서대문구,서대문독립공원,37.574873,126.954789,파도타기,,,,,,,,,,서대문구청 푸른도시과,02-330-1395
,,서울특별시,서대문구,서대문독립공원,37.574944,126.954473,공중걷기,,,,,,,,,,서대문구청 푸른도시과,02-330-1395
,,서울특별시,서대문구,서대문독립공원,37.574975,126.954458,철봉,,,,,,,,,,서대문구청 푸른도시과,02-330-1395
,,서울특별시,서대문구,서대문독립공원,37.575021,126.954512,평행봉,,,,,,,,,,서대문구청 푸른도시과,02-330-1395
,,서울특별시,서대문구,서대문독립공원,37.575842,126.95473,등허리지압기,,,,,,,,,,서대문구청 푸른도시과,02-330-1395
,,서울특별시,서대문구,서대문독립공원,37.575932,126.954746,레그프레스,,,,,,,,,,서대문구청 푸른도시과,02-330-1395
,,서울특별시,서대문구,서대문독립공원,37.575904,126.954777,허리돌리기롤링,,,,,,,,,,서대문구청 푸른도시과,02-330-1395
,,서울특별시,서대문구,서대문독립공원,37.573245,126.95489,철봉,,,,,,,,,,서대문구청 푸른도시과,02-330-1395
,,서울특별시,서대문구,서대문독립공원,37.573171,126.954955,허리돌리기롤링,,,,,,,,,,서대문구청 푸른도시과,02-330-1395
,,서울특별시,서대문구,안산공원,37.580702,126.940595,허리돌리기,,,,,,,,,,서대문구청 푸른도시과,02-330-1395
,,서울특별시,서대문구,안산공원,37.580702,126.940595,허리돌리기,,,,,,,,,,서대문구청 푸른도시과,02-330-1395
,,서울특별시,서대문구,안산공원,37.580702,126.940595,상체근육풀기,,,,,,,,,,서대문구청 푸른도시과,02-330-1395
,,서울특별시,서대문구,안산공원,37.580702,126.940595,공중걷기,,,,,,,,,,서대문구청 푸른도시과,02-330-1395
,,서울특별시,서대문구,안산공원,37.580702,126.940595,파도타기,,,,,,,,,,서대문구청 푸른도시과,02-330-1395
,,서울특별시,서대문구,안산공원,37.580702,126.940595,허리돌리기,,,,,,,,,,서대문구청 푸른도시과,02-330-1395
,,서울특별시,서대문구,안산공원,37.580151,126.940885,허리돌리기,,,,,,,,,,서대문구청 푸른도시과,02-330-1395
,,서울특별시,서대문구,안산공원,37.580151,126.940885,윗몸일으키기,,,,,,,,,,서대문구청 푸른도시과,02-330-1395
,,서울특별시,서대문구,안산공원,37.57785814,126.9404354,허리돌리기,,,,,,,,,,서대문구청 푸른도시과,02-330-1395
,,서울특별시,서대문구,안산공원,37.57769069,126.9403077,턱걸이,,,,,,,,,,서대문구청 푸른도시과,02-330-1395
,,서울특별시,서대문구,안산공원,37.57782283,126.9402976,평행봉,,,,,,,,,,서대문구청 푸른도시과,02-330-1395
,,서울특별시,서대문구,안산공원,37.5797982,126.9427534,턱걸이,,,,,,,,,,서대문구청 푸른도시과,02-330-1395
,,서울특별시,서대문구,안산공원,37.5796926,126.942989,허리돌리기,,,,,,,,,,서대문구청 푸른도시과,02-330-1395
,,서울특별시,서대문구,안산공원,37.5796686,126.9430494,허리돌리기,,,,,,,,,,서대문구청 푸른도시과,02-330-1395
,,서울특별시,서대문구,안산공원,37.5796431,126.9433452,평행봉,,,,,,,,,,서대문구청 푸른도시과,02-330-1395
,,서울특별시,서대문구,안산공원,37.5741764,126.9403528,턱걸이,,,,,,,,,,서대문구청 푸른도시과,02-330-1395
,,서울특별시,서대문구,안산공원,37.5741764,126.9403528,허리돌리기,,,,,,,,,,서대문구청 푸른도시과,02-330-1395
,,서울특별시,서대문구,안산공원,37.5729646,126.941844,평행봉,,,,,,,,,,서대문구청 푸른도시과,02-330-1395
,,서울특별시,서대문구,안산공원,37.5729839,126.9418923,허리돌리기,,,,,,,,,,서대문구청 푸른도시과,02-330-1395
,,서울특별시,서대문구,안산공원,37.5724024,126.9418263,턱걸이,,,,,,,,,,서대문구청 푸른도시과,02-330-1395
,,서울특별시,서대문구,안산공원,37.5724024,126.9418263,허리돌리기,,,,,,,,,,서대문구청 푸른도시과,02-330-1395
,,서울특별시,서대문구,안산공원,37.579353,126.9465,공중걷기,,,,,,,,,,서대문구청 푸른도시과,02-330-1395
,,서울특별시,서대문구,안산공원,37.579353,126.9465,턱걸이,,,,,,,,,,서대문구청 푸른도시과,02-330-1395
,,서울특별시,서대문구,안산공원,37.579353,126.9465,허리돌리기,,,,,,,,,,서대문구청 푸른도시과,02-330-1395
,,서울특별시,서대문구,안산공원,37.579353,126.9465,윗몸일으키기,,,,,,,,,,서대문구청 푸른도시과,02-330-1395
,,서울특별시,서대문구,안산공원,37.5802562,126.9458233,등허리지압기,,,,,,,,,,서대문구청 푸른도시과,02-330-1395
,,서울특별시,서대문구,안산공원,37.5802562,126.9458233,윗몸일으키기,,,,,,,,,,서대문구청 푸른도시과,02-330-1395
,,서울특별시,서대문구,안산공원,37.5799677,126.9454895,파도타기,,,,,,,,,,서대문구청 푸른도시과,02-330-1395
,,서울특별시,서대문구,안산공원,37.5799677,126.9454895,윗몸일으키기,,,,,,,,,,서대문구청 푸른도시과,02-330-1395
,,서울특별시,서대문구,안산공원,37.5800411,126.944942,공중걷기,,,,,,,,,,서대문구청 푸른도시과,02-330-1395
,,서울특별시,서대문구,안산공원,37.5800411,126.944942,허리돌리기,,,,,,,,,,서대문구청 푸른도시과,02-330-1395
,,서울특별시,서대문구,안산공원,37.5800891,126.9448091,공중걷기,,,,,,,,,,서대문구청 푸른도시과,02-330-1395
,,서울특별시,서대문구,안산공원,37.5800891,126.9448091,턱걸이,,,,,,,,,,서대문구청 푸른도시과,02-330-1395
,,서울특별시,서대문구,안산공원,37.5800042,126.9448373,거꾸로매달리기,,,,,,,,,,서대문구청 푸른도시과,02-330-1395
,,서울특별시,서대문구,안산공원,37.5800042,126.9448373,평행봉,,,,,,,,,,서대문구청 푸른도시과,02-330-1395
,,서울특별시,서대문구,안산공원,37.58023013,126.9449187,파도타기,,,,,,,,,,서대문구청 푸른도시과,02-330-1395
,,서울특별시,서대문구,안산공원,37.58023013,126.9449187,윗몸일으키기,,,,,,,,,,서대문구청 푸른도시과,02-330-1395
,,서울특별시,서대문구,안산공원,37.58025176,126.9449207,상체근육풀기,,,,,,,,,,서대문구청 푸른도시과,02-330-1395
,,서울특별시,서대문구,안산공원,37.58025176,126.9449207,공중걷기,,,,,,,,,,서대문구청 푸른도시과,02-330-1395
,,서울특별시,서대문구,안산공원,37.58025176,126.9449207,파도타기,,,,,,,,,,서대문구청 푸른도시과,02-330-1395
,,서울특별시,서대문구,안산공원,37.574995,126.952535,상체근육풀기,,,,,,,,,,서대문구청 푸른도시과,02-330-1395
,,서울특별시,서대문구,안산공원,37.570512,126.957343,상체근육풀기,,,,,,,,,,서대문구청 푸른도시과,02-330-1395
,,서울특별시,서대문구,안산공원,37.570512,126.957343,거꾸로매달리기,,,,,,,,,,서대문구청 푸른도시과,02-330-1395
,,서울특별시,서대문구,안산공원,37.570512,126.957343,등허리지압기,,,,,,,,,,서대문구청 푸른도시과,02-330-1395
,,서울특별시,서대문구,안산공원,37.570512,126.957343,허리돌리기,,,,,,,,,,서대문구청 푸른도시과,02-330-1395
,,서울특별시,서대문구,안산공원,37.570154,126.95705,윗몸일으키기,,,,,,,,,,서대문구청 푸른도시과,02-330-1395
,,서울특별시,서대문구,안산공원,37.5701864,126.9555199,달리기유형,,,,,,,,,,서대문구청 푸른도시과,02-330-1395
,,서울특별시,서대문구,안산공원,37.5701864,126.9555199,윗몸일으키기,,,,,,,,,,서대문구청 푸른도시과,02-330-1395
,,서울특별시,서대문구,안산공원,37.5701487,126.9555868,달리기유형,,,,,,,,,,서대문구청 푸른도시과,02-330-1395
,,서울특별시,서대문구,안산공원,37.5701487,126.9555868,허리돌리기,,,,,,,,,,서대문구청 푸른도시과,02-330-1395
,,서울특별시,서대문구,안산공원,37.5701487,126.9555868,윗몸일으키기,,,,,,,,,,서대문구청 푸른도시과,02-330-1395
,,서울특별시,서대문구,안산공원,37.5673875,126.9576168,상체근육풀기,,,,,,,,,,서대문구청 푸른도시과,02-330-1395
,,서울특별시,서대문구,안산공원,37.5673875,126.9576168,거꾸로매달리기,,,,,,,,,,서대문구청 푸른도시과,02-330-1395
,,서울특별시,서대문구,안산공원,37.5673875,126.9576168,공중걷기,,,,,,,,,,서대문구청 푸른도시과,02-330-1395
,,서울특별시,서대문구,안산공원,37.5673875,126.9576168,파도타기,,,,,,,,,,서대문구청 푸른도시과,02-330-1395
,,서울특별시,서대문구,안산공원,37.5673875,126.9576168,평행봉,,,,,,,,,,서대문구청 푸른도시과,02-330-1395
,,서울특별시,서대문구,안산공원,37.5673875,126.9576168,턱걸이,,,,,,,,,,서대문구청 푸른도시과,02-330-1395
,,서울특별시,서대문구,안산공원,37.5673875,126.9576168,허리돌리기,,,,,,,,,,서대문구청 푸른도시과,02-330-1395
,,서울특별시,서대문구,안산공원,37.5673875,126.9576168,윗몸일으키기,,,,,,,,,,서대문구청 푸른도시과,02-330-1395
,,서울특별시,서대문구,안산공원,37.5673875,126.9576168,허리돌리기,,,,,,,,,,서대문구청 푸른도시과,02-330-1395
,,서울특별시,서대문구,안산공원,37.57182943,126.9534721,허리돌리기,,,,,,,,,,서대문구청 푸른도시과,02-330-1395
,,서울특별시,서대문구,안산공원,37.57182944,126.9534721,윗몸일으키기,,,,,,,,,,서대문구청 푸른도시과,02-330-1395
,,서울특별시,서대문구,안산공원,37.57182945,126.9534721,윗몸일으키기,,,,,,,,,,서대문구청 푸른도시과,02-330-1395
,,서울특별시,서대문구,안산공원,37.57182946,126.9534721,거꾸로매달리기,,,,,,,,,,서대문구청 푸른도시과,02-330-1395
,,서울특별시,서대문구,안산공원,37.57181658,126.9535584,역기올리기,,,,,,,,,,서대문구청 푸른도시과,02-330-1395
,,서울특별시,서대문구,안산공원,37.57181658,126.9535584,달리기유형,,,,,,,,,,서대문구청 푸른도시과,02-330-1395
,,서울특별시,서대문구,안산공원,37.57181658,126.9535584,거꾸로매달리기,,,,,,,,,,서대문구청 푸른도시과,02-330-1395
,,서울특별시,서대문구,안산공원,37.57181658,126.9535584,허리돌리기,,,,,,,,,,서대문구청 푸른도시과,02-330-1395
,,서울특별시,서대문구,안산공원,37.57181658,126.9535584,윗몸일으키기,,,,,,,,,,서대문구청 푸른도시과,02-330-1395
,,서울특별시,서대문구,안산공원,37.56699743,126.9527781,역기올리기,,,,,,,,,,서대문구청 푸른도시과,02-330-1395
,,서울특별시,서대문구,안산공원,37.56699743,126.9527781,윗몸일으키기,,,,,,,,,,서대문구청 푸른도시과,02-330-1395
,,서울특별시,서대문구,안산공원,37.56701965,126.9525116,달리기유형,,,,,,,,,,서대문구청 푸른도시과,02-330-1395
,,서울특별시,서대문구,안산공원,37.56695781,126.9525105,파도타기,,,,,,,,,,서대문구청 푸른도시과,02-330-1395
,,서울특별시,서대문구,안산공원,37.56698354,126.9524069,공중걷기,,,,,,,,,,서대문구청 푸른도시과,02-330-1395
,,서울특별시,서대문구,안산공원,37.56691827,126.9524091,거꾸로매달리기,,,,,,,,,,서대문구청 푸른도시과,02-330-1395
,,서울특별시,서대문구,안산공원,37.56697836,126.9523476,허리돌리기,,,,,,,,,,서대문구청 푸른도시과,02-330-1395
,,서울특별시,서대문구,안산공원,37.56697836,126.9523476,평행봉,,,,,,,,,,서대문구청 푸른도시과,02-330-1395
,,서울특별시,서대문구,안산공원,37.56690191,126.9523142,허리돌리기,,,,,,,,,,서대문구청 푸른도시과,02-330-1395
,,서울특별시,서대문구,안산공원,37.56690191,126.9523142,턱걸이,,,,,,,,,,서대문구청 푸른도시과,02-330-1395
,,서울특별시,서대문구,안산공원,37.56694312,126.952277,허리돌리기,,,,,,,,,,서대문구청 푸른도시과,02-330-1395
,,서울특별시,서대문구,안산공원,37.5680387,126.9558788,허리돌리기,,,,,,,,,,서대문구청 푸른도시과,02-330-1395
,,서울특별시,서대문구,안산공원,37.5680902,126.9558788,허리돌리기,,,,,,,,,,서대문구청 푸른도시과,02-330-1395
,,서울특별시,서대문구,안산공원,37.5681795,126.9557838,등허리지압기,,,,,,,,,,서대문구청 푸른도시과,02-330-1395
,,서울특별시,서대문구,안산공원,37.5681382,126.9556155,윗몸일으키기,,,,,,,,,,서대문구청 푸른도시과,02-330-1395
,,서울특별시,서대문구,안산공원,37.56863025,126.9555257,평행봉,,,,,,,,,,서대문구청 푸른도시과,02-330-1395
,,서울특별시,서대문구,안산공원,37.56856753,126.9554572,평행봉,,,,,,,,,,서대문구청 푸른도시과,02-330-1395
,,서울특별시,서대문구,안산공원,37.5684748,126.9555187,허리돌리기,,,,,,,,,,서대문구청 푸른도시과,02-330-1395
,,서울특별시,서대문구,안산공원,37.5684524,126.9554432,턱걸이,,,,,,,,,,서대문구청 푸른도시과,02-330-1395
,,서울특별시,서대문구,안산공원,37.5689772,126.9553782,역기올리기,,,,,,,,,,서대문구청 푸른도시과,02-330-1395
,,서울특별시,서대문구,안산공원,37.57074387,126.941837,허리돌리기,,,,,,,,,,서대문구청 푸른도시과,02-330-1395
,,서울특별시,서대문구,안산공원,37.57067533,126.9421629,허리돌리기,,,,,,,,,,서대문구청 푸른도시과,02-330-1395
,,서울특별시,서대문구,안산공원,37.57064683,126.9418393,상체근육풀기,,,,,,,,,,서대문구청 푸른도시과,02-330-1395
,,서울특별시,서대문구,안산공원,37.56990039,126.9470599,허리돌리기,,,,,,,,,,서대문구청 푸른도시과,02-330-1395
,,서울특별시,서대문구,안산공원,37.56990039,126.9470599,윗몸일으키기,,,,,,,,,,서대문구청 푸른도시과,02-330-1395
,,서울특별시,서대문구,안산공원,37.56990039,126.9470599,허리돌리기,,,,,,,,,,서대문구청 푸른도시과,02-330-1395
,,서울특별시,서대문구,안산공원,37.56990039,126.9470599,윗몸일으키기,,,,,,,,,,서대문구청 푸른도시과,02-330-1395
,,서울특별시,서대문구,안산공원,37.56991246,126.9471505,역기올리기,,,,,,,,,,서대문구청 푸른도시과,02-330-1395
,,서울특별시,서대문구,안산공원,37.56991246,126.9471505,상체근육풀기,,,,,,,,,,서대문구청 푸른도시과,02-330-1395
,,서울특별시,서대문구,안산공원,37.56991246,126.9471505,허리돌리기,,,,,,,,,,서대문구청 푸른도시과,02-330-1395
,,서울특별시,서대문구,안산공원,37.5705791,126.9537167,턱걸이,,,,,,,,,,서대문구청 푸른도시과,02-330-1395
,,서울특별시,서대문구,안산공원,37.5705791,126.9537167,허리,,,,,,,,,,서대문구청 푸른도시과,02-330-1395
,,서울특별시,서대문구,안산공원,37.5705791,126.9537167,윗몸일으키기,,,,,,,,,,서대문구청 푸른도시과,02-330-1395
,,서울특별시,서대문구,안산공원,37.5703619,126.9517294,등허리지압기,,,,,,,,,,서대문구청 푸른도시과,02-330-1395
,,서울특별시,서대문구,안산공원,37.5703619,126.9517294,평행봉,,,,,,,,,,서대문구청 푸른도시과,02-330-1395
,,서울특별시,서대문구,안산공원,37.5703619,126.9517294,턱걸이,,,,,,,,,,서대문구청 푸른도시과,02-330-1395
,,서울특별시,서대문구,안산공원,37.5703619,126.9517294,허리돌리기,,,,,,,,,,서대문구청 푸른도시과,02-330-1395
,,서울특별시,서대문구,안산공원,37.5703619,126.9517294,허리돌리기,,,,,,,,,,서대문구청 푸른도시과,02-330-1395
,,서울특별시,서대문구,안산공원,37.5703619,126.9517294,허리돌리기,,,,,,,,,,서대문구청 푸른도시과,02-330-1395
,,서울특별시,서대문구,안산공원,37.57094771,126.9510079,달리기유형,,,,,,,,,,서대문구청 푸른도시과,02-330-1395
,,서울특별시,서대문구,안산공원,37.57094771,126.9510079,상체근육풀기,,,,,,,,,,서대문구청 푸른도시과,02-330-1395
,,서울특별시,서대문구,안산공원,37.57094771,126.9510079,거꾸로매달리기,,,,,,,,,,서대문구청 푸른도시과,02-330-1395
,,서울특별시,서대문구,안산공원,37.57094771,126.9510079,공중걷기,,,,,,,,,,서대문구청 푸른도시과,02-330-1395
,,서울특별시,서대문구,안산공원,37.57094771,126.9510079,파도타기,,,,,,,,,,서대문구청 푸른도시과,02-330-1395
,,서울특별시,서대문구,안산공원,37.57094642,126.9509885,윗몸일으키기,,,,,,,,,,서대문구청 푸른도시과,02-330-1395
,,서울특별시,서대문구,안산공원,37.5753685,126.9431157,허리돌리기,,,,,,,,,,서대문구청 푸른도시과,02-330-1395
,,서울특별시,서대문구,안산공원,37.5751211,126.9429799,거꾸로매달리기,,,,,,,,,,서대문구청 푸른도시과,02-330-1395
,,서울특별시,서대문구,안산공원,37.5751211,126.9429799,공중걷기,,,,,,,,,,서대문구청 푸른도시과,02-330-1395
,,서울특별시,서대문구,안산공원,37.5751211,126.9429799,평행봉,,,,,,,,,,서대문구청 푸른도시과,02-330-1395
,,서울특별시,서대문구,안산공원,37.5751211,126.9429799,턱걸이,,,,,,,,,,서대문구청 푸른도시과,02-330-1395
,,서울특별시,서대문구,안산공원,37.5746111,126.9432716,상체근육풀기,,,,,,,,,,서대문구청 푸른도시과,02-330-1395
,,서울특별시,서대문구,안산공원,37.5746111,126.9432716,거꾸로매달리기,,,,,,,,,,서대문구청 푸른도시과,02-330-1395
,,서울특별시,서대문구,안산공원,37.5746111,126.9432716,공중걷기,,,,,,,,,,서대문구청 푸른도시과,02-330-1395
,,서울특별시,서대문구,안산공원,37.5746111,126.9432716,공중걷기,,,,,,,,,,서대문구청 푸른도시과,02-330-1395
,,서울특별시,서대문구,안산공원,37.5746111,126.9432716,파도타기,,,,,,,,,,서대문구청 푸른도시과,02-330-1395
,,서울특별시,서대문구,안산공원,37.5746111,126.9432716,평행봉,,,,,,,,,,서대문구청 푸른도시과,02-330-1395
,,서울특별시,서대문구,안산공원,37.5746111,126.9432716,허리돌리기,,,,,,,,,,서대문구청 푸른도시과,02-330-1395
,,서울특별시,서대문구,안산공원,37.5746111,126.9432716,허리돌리기,,,,,,,,,,서대문구청 푸른도시과,02-330-1395
,,서울특별시,서대문구,안산공원,37.5746111,126.9432716,윗몸일으키기,,,,,,,,,,서대문구청 푸른도시과,02-330-1395
,,서울특별시,서대문구,안산공원,37.5737039,126.9434726,윗몸일으키기,,,,,,,,,,서대문구청 푸른도시과,02-330-1395
,,서울특별시,서대문구,안산공원,37.5736141,126.9434326,허리돌리기,,,,,,,,,,서대문구청 푸른도시과,02-330-1395
,,서울특별시,서대문구,안산공원,37.5740173,126.9442444,달리기유형,,,,,,,,,,서대문구청 푸른도시과,02-330-1395
,,서울특별시,서대문구,안산공원,37.5740173,126.9442444,상체근육풀기,,,,,,,,,,서대문구청 푸른도시과,02-330-1395
,,서울특별시,서대문구,안산공원,37.5740173,126.9442444,공중걷기,,,,,,,,,,서대문구청 푸른도시과,02-330-1395
,,서울특별시,서대문구,안산공원,37.5740173,126.9442444,거꾸로매달리기,,,,,,,,,,서대문구청 푸른도시과,02-330-1395
,,서울특별시,서대문구,안산공원,37.5738551,126.9442955,허리돌리기,,,,,,,,,,서대문구청 푸른도시과,02-330-1395
,,서울특별시,서대문구,안산공원,37.5738551,126.9442955,윗몸일으키기,,,,,,,,,,서대문구청 푸른도시과,02-330-1395
,,서울특별시,서대문구,안산공원,37.5723846,126.942494,허리돌리기,,,,,,,,,,서대문구청 푸른도시과,02-330-1395
,,서울특별시,서대문구,안산공원,37.5722747,126.9428619,허리돌리기,,,,,,,,,,서대문구청 푸른도시과,02-330-1395
,,서울특별시,서대문구,안산공원,37.5722747,126.9428619,윗몸일으키기,,,,,,,,,,서대문구청 푸른도시과,02-330-1395
,,서울특별시,서대문구,안산공원,37.5721416,126.9433827,평행봉,,,,,,,,,,서대문구청 푸른도시과,02-330-1395
,,서울특별시,서대문구,안산공원,37.5721416,126.9433827,턱걸이,,,,,,,,,,서대문구청 푸른도시과,02-330-1395
,,서울특별시,서대문구,안산공원,37.5721416,126.9433827,허리돌리기,,,,,,,,,,서대문구청 푸른도시과,02-330-1395
,,서울특별시,서대문구,안산공원,37.5723821,126.9432405,평행봉,,,,,,,,,,서대문구청 푸른도시과,02-330-1395
,,서울특별시,서대문구,안산공원,37.5723821,126.9432405,턱걸이,,,,,,,,,,서대문구청 푸른도시과,02-330-1395
,,서울특별시,서대문구,안산공원,37.5723821,126.9432405,허리돌리기,,,,,,,,,,서대문구청 푸른도시과,02-330-1395
,,서울특별시,서대문구,안산공원,37.5722793,126.9433535,윗몸일으키기,,,,,,,,,,서대문구청 푸른도시과,02-330-1395
,,서울특별시,서대문구,안산공원,37.5722778,126.9433826,허리돌리기,,,,,,,,,,서대문구청 푸른도시과,02-330-1395
,,서울특별시,서대문구,안산공원,37.5722778,126.9433826,윗몸일으키기,,,,,,,,,,서대문구청 푸른도시과,02-330-1395
,,서울특별시,서대문구,안산공원,37.5746623,126.9474814,달리기유형,,,,,,,,,,서대문구청 푸른도시과,02-330-1395
,,서울특별시,서대문구,안산공원,37.5746623,126.9474814,상체근육풀기,,,,,,,,,,서대문구청 푸른도시과,02-330-1395
,,서울특별시,서대문구,안산공원,37.5746623,126.9474814,공중걷기,,,,,,,,,,서대문구청 푸른도시과,02-330-1395
,,서울특별시,서대문구,안산공원,37.5746623,126.9474814,파도타기,,,,,,,,,,서대문구청 푸른도시과,02-330-1395
,,서울특별시,서대문구,안산공원,37.5746623,126.9474814,등허리지압기,,,,,,,,,,서대문구청 푸른도시과,02-330-1395
,,서울특별시,서대문구,안산공원,37.57468762,126.9473931,평행봉,,,,,,,,,,서대문구청 푸른도시과,02-330-1395
,,서울특별시,서대문구,안산공원,37.57468762,126.9473931,턱걸이,,,,,,,,,,서대문구청 푸른도시과,02-330-1395
,,서울특별시,서대문구,안산공원,37.57468762,126.9473931,허리돌리기,,,,,,,,,,서대문구청 푸른도시과,02-330-1395
,,서울특별시,서대문구,안산공원,37.57468762,126.9473931,윗몸일으키기,,,,,,,,,,서대문구청 푸른도시과,02-330-1395
,,서울특별시,서대문구,안산공원,37.5745896,126.9470317,허리돌리기,,,,,,,,,,서대문구청 푸른도시과,02-330-1395
,,서울특별시,서대문구,안산공원,37.5745896,126.9470317,허리돌리기,,,,,,,,,,서대문구청 푸른도시과,02-330-1395
,,서울특별시,서대문구,안산공원,37.5745896,126.9470317,윗몸일으키기,,,,,,,,,,서대문구청 푸른도시과,02-330-1395
,,서울특별시,서대문구,안산공원,37.574517,126.9466312,허리돌리기,,,,,,,,,,서대문구청 푸른도시과,02-330-1395
,,서울특별시,서대문구,안산공원,37.574517,126.9466312,윗몸일으키기,,,,,,,,,,서대문구청 푸른도시과,02-330-1395
,,서울특별시,서대문구,안산공원,37.574517,126.9466312,윗몸일으키기,,,,,,,,,,서대문구청 푸른도시과,02-330-1395
,,서울특별시,서대문구,안산공원,37.5740938,126.9466533,파도타기,,,,,,,,,,서대문구청 푸른도시과,02-330-1395
,,서울특별시,서대문구,안산공원,37.5740589,126.9463912,상체근육풀기,,,,,,,,,,서대문구청 푸른도시과,02-330-1395
,,서울특별시,서대문구,안산공원,37.5740589,126.9463912,거꾸로매달리기,,,,,,,,,,서대문구청 푸른도시과,02-330-1395
,,서울특별시,서대문구,안산공원,37.5739488,126.9463475,공중걷기,,,,,,,,,,서대문구청 푸른도시과,02-330-1395
,,서울특별시,서대문구,안산공원,37.5739488,126.9463475,윗몸일으키기,,,,,,,,,,서대문구청 푸른도시과,02-330-1395
,,서울특별시,서대문구,안산공원,37.5736415,126.946355,역기올리기,,,,,,,,,,서대문구청 푸른도시과,02-330-1395
,,서울특별시,서대문구,안산공원,37.5736415,126.946355,상체근육풀기,,,,,,,,,,서대문구청 푸른도시과,02-330-1395
,,서울특별시,서대문구,안산공원,37.5736415,126.946355,거꾸로매달리기,,,,,,,,,,서대문구청 푸른도시과,02-330-1395
,,서울특별시,서대문구,안산공원,37.5736415,126.946355,공중걷기,,,,,,,,,,서대문구청 푸른도시과,02-330-1395
,,서울특별시,서대문구,안산공원,37.5734793,126.94653,역기올리기,,,,,,,,,,서대문구청 푸른도시과,02-330-1395
,,서울특별시,서대문구,안산공원,37.5734793,126.94653,턱걸이,,,,,,,,,,서대문구청 푸른도시과,02-330-1395
,,서울특별시,서대문구,안산공원,37.5734793,126.94653,허리돌리기,,,,,,,,,,서대문구청 푸른도시과,02-330-1395
,,서울특별시,서대문구,안산공원,37.5734793,126.94653,윗몸일으키기,,,,,,,,,,서대문구청 푸른도시과,02-330-1395
,,서울특별시,서대문구,안산공원,37.5735952,126.9463988,역기올리기,,,,,,,,,,서대문구청 푸른도시과,02-330-1395
,,서울특별시,서대문구,안산공원,37.5735952,126.9463988,상체근육풀기,,,,,,,,,,서대문구청 푸른도시과,02-330-1395
,,서울특별시,서대문구,안산공원,37.5735952,126.9463988,공중걷기,,,,,,,,,,서대문구청 푸른도시과,02-330-1395
,,서울특별시,서대문구,안산공원,37.5735952,126.9463988,파도타기,,,,,,,,,,서대문구청 푸른도시과,02-330-1395
,,서울특별시,서대문구,안산공원,37.5735082,126.9463187,위시몸일으키기,,,,,,,,,,서대문구청 푸른도시과,02-330-1395
,,서울특별시,서대문구,안산공원,37.5735082,126.9463187,파도타기,,,,,,,,,,서대문구청 푸른도시과,02-330-1395
,,서울특별시,서대문구,안산공원,37.5735082,126.9463187,평행봉,,,,,,,,,,서대문구청 푸른도시과,02-330-1395
,,서울특별시,서대문구,안산공원,37.572409,126.9450158,상체근육풀기,,,,,,,,,,서대문구청 푸른도시과,02-330-1395
,,서울특별시,서대문구,안산공원,37.5723568,126.9449576,턱걸이,,,,,,,,,,서대문구청 푸른도시과,02-330-1395
,,서울특별시,서대문구,안산공원,37.5722032,126.9449577,달리기유형,,,,,,,,,,서대문구청 푸른도시과,02-330-1395
,,서울특별시,서대문구,안산공원,37.5721597,126.944925,파도타기,,,,,,,,,,서대문구청 푸른도시과,02-330-1395
,,서울특별시,서대문구,안산공원,37.5728148,126.9449099,상체근육풀기,,,,,,,,,,서대문구청 푸른도시과,02-330-1395
,,서울특별시,서대문구,안산공원,37.5728148,126.9449099,평행봉,,,,,,,,,,서대문구청 푸른도시과,02-330-1395
,,서울특별시,서대문구,안산공원,37.5728148,126.9449099,윗몸일으키기,,,,,,,,,,서대문구청 푸른도시과,02-330-1395
,,서울특별시,서대문구,안산공원,37.5729943,126.9445893,파도타기,,,,,,,,,,서대문구청 푸른도시과,02-330-1395
,,서울특별시,서대문구,안산공원,37.5729943,126.9445893,허리돌리기,,,,,,,,,,서대문구청 푸른도시과,02-330-1395
,,서울특별시,서대문구,안산공원,37.5732379,126.9448295,거꾸로매달리기,,,,,,,,,,서대문구청 푸른도시과,02-330-1395
,,서울특별시,서대문구,안산공원,37.5732379,126.9448295,턱걸이,,,,,,,,,,서대문구청 푸른도시과,02-330-1395
,,서울특별시,서대문구,안산공원,37.5732436,126.9446183,공중걷기,,,,,,,,,,서대문구청 푸른도시과,02-330-1395
,,서울특별시,서대문구,안산공원,37.5732436,126.9446183,허리돌리기,,,,,,,,,,서대문구청 푸른도시과,02-330-1395
,,서울특별시,서대문구,안산공원,37.5737859,126.945104,윗몸일으키기,,,,,,,,,,서대문구청 푸른도시과,02-330-1395
,,서울특별시,서대문구,안산공원,37.5737961,126.9453516,턱걸이,,,,,,,,,,서대문구청 푸른도시과,02-330-1395
,,서울특별시,서대문구,안산공원,37.5738251,126.9453717,허리돌리기,,,,,,,,,,서대문구청 푸른도시과,02-330-1395
,,서울특별시,서대문구,백련산근린공원,37.582612,126.92996,테니스장,,,,,,,,,,서대문구청 푸른도시과,02-330-1395
,,서울특별시,서대문구,백련산근린공원,37.582369,126.929801,테니스장,,,,,,,,,,서대문구청 푸른도시과,02-330-1395
,,서울특별시,서대문구,백련산근린공원,37.58165,126.929523,공중걷기,,,,,,,,,,서대문구청 푸른도시과,02-330-1395
,,서울특별시,서대문구,백련산근린공원,37.58165,126.929523,파도타기,,,,,,,,,,서대문구청 푸른도시과,02-330-1395
,,서울특별시,서대문구,백련산근린공원,37.583373,126.930451,상체근육풀기,,,,,,,,,,서대문구청 푸른도시과,02-330-1395
,,서울특별시,서대문구,백련산근린공원,37.583373,126.930451,공중걷기,,,,,,,,,,서대문구청 푸른도시과,02-330-1395
,,서울특별시,서대문구,백련산근린공원,37.583373,126.930451,파도타기,,,,,,,,,,서대문구청 푸른도시과,02-330-1395
,,서울특별시,서대문구,백련산근린공원,37.583373,126.930451,파도타기2,,,,,,,,,,서대문구청 푸른도시과,02-330-1395
,,서울특별시,서대문구,백련산근린공원,37.583373,126.930451,평행봉,,,,,,,,,,서대문구청 푸른도시과,02-330-1395
,,서울특별시,서대문구,백련산근린공원,37.583373,126.930451,허리돌리기,,,,,,,,,,서대문구청 푸른도시과,02-330-1395
,,서울특별시,서대문구,백련산근린공원,37.583373,126.930451,허리돌리기2,,,,,,,,,,서대문구청 푸른도시과,02-330-1395
,,서울특별시,서대문구,백련산근린공원,37.583373,126.930451,풀웨이트,,,,,,,,,,서대문구청 푸른도시과,02-330-1395
,,서울특별시,서대문구,백련산근린공원,37.584874,126.931312,허리돌리기,,,,,,,,,,서대문구청 푸른도시과,02-330-1395
,,서울특별시,서대문구,백련산근린공원,37.585623,126.929984,등허리지압기,,,,,,,,,,서대문구청 푸른도시과,02-330-1395
,,서울특별시,서대문구,백련산근린공원,37.585866,126.929984,공중걷기,,,,,,,,,,서대문구청 푸른도시과,02-330-1395
,,서울특별시,서대문구,백련산근린공원,37.589949,126.928035,역기들기,,,,,,,,,,서대문구청 푸른도시과,02-330-1395
,,서울특별시,서대문구,백련산근린공원,37.589949,126.928035,역기내리기,,,,,,,,,,서대문구청 푸른도시과,02-330-1395
,,서울특별시,서대문구,백련산근린공원,37.590456,126.927835,역기들기,,,,,,,,,,서대문구청 푸른도시과,02-330-1395
,,서울특별시,서대문구,백련산근린공원,37.590456,126.927835,역기내리기,,,,,,,,,,서대문구청 푸른도시과,02-330-1395
,,서울특별시,서대문구,백련산근린공원,37.591122,126.927914,등허리지압기,,,,,,,,,,서대문구청 푸른도시과,02-330-1395
,,서울특별시,서대문구,백련산근린공원,37.591745,126.928418,자전거타기,,,,,,,,,,서대문구청 푸른도시과,02-330-1395
,,서울특별시,서대문구,백련산근린공원,37.5919157,126.9284693,허리돌리기,,,,,,,,,,서대문구청 푸른도시과,02-330-1395
,,서울특별시,서대문구,백련산근린공원,37.5918946,126.9285291,풀웨이트,,,,,,,,,,서대문구청 푸른도시과,02-330-1395
,,서울특별시,서대문구,백련산근린공원,37.5921654,126.9285869,허리돌리기,,,,,,,,,,서대문구청 푸른도시과,02-330-1395
,,서울특별시,서대문구,백련산근린공원,37.5923477,126.9286565,등허리지압기,,,,,,,,,,서대문구청 푸른도시과,02-330-1395
,,서울특별시,서대문구,백련산근린공원,37.5927441,126.928915,거꾸로매달리기,,,,,,,,,,서대문구청 푸른도시과,02-330-1395
,,서울특별시,서대문구,백련산근린공원,37.5965443,126.934299,달리기유형,,,,,,,,,,서대문구청 푸른도시과,02-330-1395
,,서울특별시,서대문구,백련산근린공원,37.5833888,126.9309572,상체근육풀기,,,,,,,,,,서대문구청 푸른도시과,02-330-1395
,,서울특별시,서대문구,백련산근린공원,37.5848901,126.9315634,허리돌리기,,,,,,,,,,서대문구청 푸른도시과,02-330-1395
,,서울특별시,서대문구,백련산근린공원,37.5952947,126.9292457,상체근육풀기,,,,,,,,,,서대문구청 푸른도시과,02-330-1395
,,서울특별시,서대문구,백련산근린공원,37.5952947,126.9292457,공중걷기,,,,,,,,,,서대문구청 푸른도시과,02-330-1395
,,서울특별시,서대문구,백련산근린공원,37.5952947,126.9292457,파도타기,,,,,,,,,,서대문구청 푸른도시과,02-330-1395
,,서울특별시,서대문구,백련산근린공원,37.5952947,126.9292457,파도타기2,,,,,,,,,,서대문구청 푸른도시과,02-330-1395
,,서울특별시,서대문구,백련산근린공원,37.5952947,126.9292457,평행봉,,,,,,,,,,서대문구청 푸른도시과,02-330-1395
,,서울특별시,서대문구,백련산근린공원,37.5952947,126.9292457,허리돌리기,,,,,,,,,,서대문구청 푸른도시과,02-330-1395
,,서울특별시,서대문구,백련산근린공원,37.5952947,126.9292457,허리돌리기2,,,,,,,,,,서대문구청 푸른도시과,02-330-1395
,,서울특별시,서대문구,백련산근린공원,37.5952947,126.9292457,풀웨이트,,,,,,,,,,서대문구청 푸른도시과,02-330-1395
,,서울특별시,서대문구,백련산근린공원,37.5867337,126.930799,다리뻗치기,,,,,,,,,,서대문구청 푸른도시과,02-330-1395
,,서울특별시,서대문구,백련산근린공원,37.5867337,126.930799,허리돌리기,,,,,,,,,,서대문구청 푸른도시과,02-330-1395
,,서울특별시,서대문구,백련산근린공원,37.5867337,126.930799,거꾸로매달리기,,,,,,,,,,서대문구청 푸른도시과,02-330-1395
,,서울특별시,서대문구,백련산근린공원,37.5888305,126.9297545,허리돌리기,,,,,,,,,,서대문구청 푸른도시과,02-330-1395
,,서울특별시,서대문구,백련산근린공원,37.5888305,126.9297545,윗몸일으키기,,,,,,,,,,서대문구청 푸른도시과,02-330-1395
,,서울특별시,서대문구,백련산근린공원,37.5880906,126.9313408,허리돌리기,,,,,,,,,,서대문구청 푸른도시과,02-330-1395
,,서울특별시,서대문구,백련산근린공원,37.5842425,126.9283557,상체근육풀기,,,,,,,,,,서대문구청 푸른도시과,02-330-1395
,,서울특별시,서대문구,백련산근린공원,37.5842425,126.9283557,공중걷기,,,,,,,,,,서대문구청 푸른도시과,02-330-1395
,,서울특별시,서대문구,백련산근린공원,37.5842425,126.9283557,다리뻗치기,,,,,,,,,,서대문구청 푸른도시과,02-330-1395
,,서울특별시,서대문구,백련산근린공원,37.5842425,126.9283557,달리기유형,,,,,,,,,,서대문구청 푸른도시과,02-330-1395
,,서울특별시,서대문구,백련산근린공원,37.5961199,126.9338561,배드민턴장,,,,,,,,,,서대문구청 푸른도시과,02-330-1395
,,서울특별시,서대문구,백련산근린공원,37.5951164,126.9358422,등허리지압기,,,,,,,,,,서대문구청 푸른도시과,02-330-1395
,,서울특별시,서대문구,백련산근린공원,37.5928218,126.9378231,달리기유형,,,,,,,,,,서대문구청 푸른도시과,02-330-1395
,,서울특별시,서대문구,백련산근린공원,37.5928218,126.9378231,상체근육풀기,,,,,,,,,,서대문구청 푸른도시과,02-330-1395
,,서울특별시,서대문구,백련산근린공원,37.5928218,126.9378231,윗몸일으키기,,,,,,,,,,서대문구청 푸른도시과,02-330-1395
,,서울특별시,서대문구,백련산근린공원,37.5928694,126.9379093,파도타기,,,,,,,,,,서대문구청 푸른도시과,02-330-1395
,,서울특별시,서대문구,백련산근린공원,37.5928694,126.9379093,허리돌리기,,,,,,,,,,서대문구청 푸른도시과,02-330-1395
,,서울특별시,서대문구,백련산근린공원,37.5858261,126.929913,거꾸로매달리기,,,,,,,,,,서대문구청 푸른도시과,02-330-1395
,,서울특별시,서대문구,백련산근린공원,37.5885463,126.9279722,파도타기,,,,,,,,,,서대문구청 푸른도시과,02-330-1395
,,서울특별시,서대문구,백련산근린공원,37.5913182,126.9279703,공중걷기,,,,,,,,,,서대문구청 푸른도시과,02-330-1395
,,서울특별시,서대문구,백련산근린공원,37.5848101,126.9315206,공중걷기,,,,,,,,,,서대문구청 푸른도시과,02-330-1395
,,서울특별시,서대문구,백련산근린공원,37.5886024,126.929808,상체근육풀기,,,,,,,,,,서대문구청 푸른도시과,02-330-1395
,,서울특별시,서대문구,백련산근린공원,37.5886024,126.929808,공중걷기,,,,,,,,,,서대문구청 푸른도시과,02-330-1395
,,서울특별시,서대문구,백련산근린공원,37.5879651,126.9313841,달리기유형,,,,,,,,,,서대문구청 푸른도시과,02-330-1395
,,서울특별시,서대문구,백련산근린공원,37.5879651,126.9313841,공중걷기,,,,,,,,,,서대문구청 푸른도시과,02-330-1395
,,서울특별시,서대문구,궁동근린공원,37.5736028,126.9289567,허리돌리기,,,,,,,,,,서대문구청 푸른도시과,02-330-1395
,,서울특별시,서대문구,궁동근린공원,37.5736028,126.9289567,허리운동,,,,,,,,,,서대문구청 푸른도시과,02-330-1395
,,서울특별시,서대문구,궁동근린공원,37.5736028,126.9289567,허리운동2,,,,,,,,,,서대문구청 푸른도시과,02-330-1395
,,서울특별시,서대문구,궁동근린공원,37.5736028,126.9289567,벤치프레스,,,,,,,,,,서대문구청 푸른도시과,02-330-1395
,,서울특별시,서대문구,궁동근린공원,37.5736028,126.9289567,윗몸일으키기,,,,,,,,,,서대문구청 푸른도시과,02-330-1395
,,서울특별시,서대문구,궁동근린공원,37.5736028,126.9289567,윗몸일으키기2,,,,,,,,,,서대문구청 푸른도시과,02-330-1395
,,서울특별시,서대문구,궁동근린공원,37.573917,126.9310522,평행봉,,,,,,,,,,서대문구청 푸른도시과,02-330-1395
,,서울특별시,서대문구,궁동근린공원,37.5739289,126.9309626,신기종기구,,,,,,,,,,서대문구청 푸른도시과,02-330-1395
,,서울특별시,서대문구,궁동근린공원,37.5739289,126.9309626,신기종기구2,,,,,,,,,,서대문구청 푸른도시과,02-330-1395
,,서울특별시,서대문구,궁동근린공원,37.5739289,126.9309626,신기종기구3,,,,,,,,,,서대문구청 푸른도시과,02-330-1395
,,서울특별시,서대문구,궁동근린공원,37.5739289,126.9309626,벤치프레스,,,,,,,,,,서대문구청 푸른도시과,02-330-1395
,,서울특별시,서대문구,궁동근린공원,37.5739289,126.9309626,허리돌리기,,,,,,,,,,서대문구청 푸른도시과,02-330-1395
,,서울특별시,서대문구,궁동근린공원,37.5739289,126.9309626,허리돌리기2,,,,,,,,,,서대문구청 푸른도시과,02-330-1395
,,서울특별시,서대문구,궁동근린공원,37.5742181,126.9309026,신기종기구,,,,,,,,,,서대문구청 푸른도시과,02-330-1395
,,서울특별시,서대문구,궁동근린공원,37.5742181,126.9309026,허리운동,,,,,,,,,,서대문구청 푸른도시과,02-330-1395
,,서울특별시,서대문구,궁동근린공원,37.5742181,126.9309026,허리운동2,,,,,,,,,,서대문구청 푸른도시과,02-330-1395
,,서울특별시,서대문구,궁동근린공원,37.5742181,126.9309026,윗몸일으키기,,,,,,,,,,서대문구청 푸른도시과,02-330-1395
,,서울특별시,서대문구,궁동근린공원,37.5742181,126.9309026,윗몸일으키기2,,,,,,,,,,서대문구청 푸른도시과,02-330-1395
,,서울특별시,서대문구,궁동근린공원,37.5740972,126.93093,배드민턴장,,,,,,,,,,서대문구청 푸른도시과,02-330-1395
,,서울특별시,서대문구,궁동근린공원,37.5740972,126.93093,배드민턴장2,,,,,,,,,,서대문구청 푸른도시과,02-330-1395
,,서울특별시,서대문구,궁동근린공원,37.5740972,126.93093,배드민턴장3,,,,,,,,,,서대문구청 푸른도시과,02-330-1395
,,서울특별시,서대문구,궁동근린공원,37.5740972,126.93093,배드민턴장4,,,,,,,,,,서대문구청 푸른도시과,02-330-1395
,,서울특별시,서대문구,궁동근린공원,37.5735413,126.929957,허리운동,,,,,,,,,,서대문구청 푸른도시과,02-330-1395
,,서울특별시,서대문구,궁동근린공원,37.5735413,126.929957,허리돌리기,,,,,,,,,,서대문구청 푸른도시과,02-330-1395
,,서울특별시,서대문구,궁동근린공원,37.5735413,126.929957,허리돌리기2,,,,,,,,,,서대문구청 푸른도시과,02-330-1395
,,서울특별시,서대문구,궁동근린공원,37.5737276,126.9302157,윗몸일으키기,,,,,,,,,,서대문구청 푸른도시과,02-330-1395
,,서울특별시,서대문구,궁동근린공원,37.5737276,126.9302157,벤치프레스,,,,,,,,,,서대문구청 푸른도시과,02-330-1395
,,서울특별시,서대문구,궁동근린공원,37.5737276,126.9302157,허리운동,,,,,,,,,,서대문구청 푸른도시과,02-330-1395
,,서울특별시,서대문구,궁동근린공원,37.5737276,126.9302157,평행봉,,,,,,,,,,서대문구청 푸른도시과,02-330-1395
,,서울특별시,서대문구,궁동근린공원,37.5685536,126.9248091,허리돌리기,,,,,,,,,,서대문구청 푸른도시과,02-330-1395
,,서울특별시,서대문구,궁동근린공원,37.5685331,126.9236444,팔굽혀펴기,,,,,,,,,,서대문구청 푸른도시과,02-330-1395
,,서울특별시,서대문구,궁동근린공원,37.5685331,126.9236444,철봉,,,,,,,,,,서대문구청 푸른도시과,02-330-1395
,,서울특별시,서대문구,궁동근린공원,37.5685331,126.9236444,철봉2,,,,,,,,,,서대문구청 푸른도시과,02-330-1395
,,서울특별시,서대문구,궁동근린공원,37.5685331,126.9236444,철봉3,,,,,,,,,,서대문구청 푸른도시과,02-330-1395
,,서울특별시,서대문구,궁동근린공원,37.5685331,126.9236444,허리운동,,,,,,,,,,서대문구청 푸른도시과,02-330-1395
,,서울특별시,서대문구,궁동근린공원,37.568632,126.9235049,평행봉,,,,,,,,,,서대문구청 푸른도시과,02-330-1395
,,서울특별시,서대문구,궁동근린공원,37.568632,126.9235049,철봉,,,,,,,,,,서대문구청 푸른도시과,02-330-1395
,,서울특별시,서대문구,궁동근린공원,37.568632,126.9235049,철봉2,,,,,,,,,,서대문구청 푸른도시과,02-330-1395
,,서울특별시,서대문구,궁동근린공원,37.568632,126.9235049,팔굽혀펴기,,,,,,,,,,서대문구청 푸른도시과,02-330-1395
,,서울특별시,서대문구,궁동근린공원,37.5687587,126.9233753,배드민턴장,,,,,,,,,,서대문구청 푸른도시과,02-330-1395
,,서울특별시,서대문구,궁동근린공원,37.5687587,126.9233753,배드민턴장2,,,,,,,,,,서대문구청 푸른도시과,02-330-1395
,,서울특별시,서대문구,궁동근린공원,37.568699,126.9228677,허리돌리기,,,,,,,,,,서대문구청 푸른도시과,02-330-1395
,,서울특별시,서대문구,궁동근린공원,37.568699,126.9228677,철봉,,,,,,,,,,서대문구청 푸른도시과,02-330-1395
,,서울특별시,서대문구,궁동근린공원,37.5696737,126.9229413,윗몸일으키기,,,,,,,,,,서대문구청 푸른도시과,02-330-1395
,,서울특별시,서대문구,궁동근린공원,37.5696737,126.9229413,철봉,,,,,,,,,,서대문구청 푸른도시과,02-330-1395
,,서울특별시,서대문구,궁동근린공원,37.5696737,126.9229413,철봉2,,,,,,,,,,서대문구청 푸른도시과,02-330-1395
,,서울특별시,서대문구,궁동근린공원,37.5696737,126.9229413,허리돌리기,,,,,,,,,,서대문구청 푸른도시과,02-330-1395
,,서울특별시,서대문구,궁동근린공원,37.5696973,126.9226775,평행봉,,,,,,,,,,서대문구청 푸른도시과,02-330-1395
,,서울특별시,서대문구,궁동근린공원,37.5696973,126.9226775,매달리기,,,,,,,,,,서대문구청 푸른도시과,02-330-1395
,,서울특별시,서대문구,궁동근린공원,37.5696973,126.9226775,매달리기2,,,,,,,,,,서대문구청 푸른도시과,02-330-1395
,,서울특별시,서대문구,궁동근린공원,37.5697866,126.9228491,농구대,,,,,,,,,,서대문구청 푸른도시과,02-330-1395
,,서울특별시,서대문구,궁동근린공원,37.5697866,126.9228491,허리돌리기,,,,,,,,,,서대문구청 푸른도시과,02-330-1395
,,서울특별시,서대문구,궁동근린공원,37.5697866,126.9228491,허리돌리기2,,,,,,,,,,서대문구청 푸른도시과,02-330-1395
,,서울특별시,서대문구,궁동근린공원,37.5697866,126.9228491,윗몸일으키기,,,,,,,,,,서대문구청 푸른도시과,02-330-1395
,,서울특별시,서대문구,궁동근린공원,37.5697866,126.9228491,평행봉,,,,,,,,,,서대문구청 푸른도시과,02-330-1395
,,서울특별시,서대문구,궁동근린공원,37.5697866,126.9228491,평행봉2,,,,,,,,,,서대문구청 푸른도시과,02-330-1395
,,서울특별시,서대문구,궁동근린공원,37.5697866,126.9228491,균형잡기,,,,,,,,,,서대문구청 푸른도시과,02-330-1395
,,서울특별시,서대문구,궁동근린공원,37.5697866,126.9228491,균형잡기2,,,,,,,,,,서대문구청 푸른도시과,02-330-1395
,,서울특별시,서대문구,궁동근린공원,37.5697866,126.9228491,균형잡기3,,,,,,,,,,서대문구청 푸른도시과,02-330-1395
,,서울특별시,서대문구,궁동근린공원,37.5698343,126.9231378,배드민턴장,,,,,,,,,,서대문구청 푸른도시과,02-330-1395
,,서울특별시,서대문구,궁동근린공원,37.5698343,126.9231378,배드민턴장2,,,,,,,,,,서대문구청 푸른도시과,02-330-1395
,,서울특별시,서대문구,궁동근린공원,37.5700246,126.9233666,허리돌리기,,,,,,,,,,서대문구청 푸른도시과,02-330-1395
,,서울특별시,서대문구,궁동근린공원,37.5702267,126.9233863,평균대,,,,,,,,,,서대문구청 푸른도시과,02-330-1395
,,서울특별시,서대문구,궁동근린공원,37.5702267,126.9233863,윗몸일으키기,,,,,,,,,,서대문구청 푸른도시과,02-330-1395
,,서울특별시,서대문구,궁동근린공원,37.5702267,126.9233863,허리운동,,,,,,,,,,서대문구청 푸른도시과,02-330-1395
,,서울특별시,서대문구,궁동근린공원,37.5685747,126.9237364,윗몸일으키기,,,,,,,,,,서대문구청 푸른도시과,02-330-1395
,,서울특별시,서대문구,궁동근린공원,37.573288,126.926951,윗몸일으키기,,,,,,,,,,서대문구청 푸른도시과,02-330-1395
,,서울특별시,서대문구,궁동근린공원,37.573288,126.926951,매달리기,,,,,,,,,,서대문구청 푸른도시과,02-330-1395
,,서울특별시,서대문구,궁동근린공원,37.573288,126.926951,평행봉,,,,,,,,,,서대문구청 푸른도시과,02-330-1395
,,서울특별시,서대문구,궁동근린공원,37.5728582,126.9276527,윗몸일으키기,,,,,,,,,,서대문구청 푸른도시과,02-330-1395
,,서울특별시,서대문구,궁동근린공원,37.5728582,126.9276527,윗몸일으키기2,,,,,,,,,,서대문구청 푸른도시과,02-330-1395
,,서울특별시,서대문구,궁동근린공원,37.5728582,126.9276527,벤치프레스,,,,,,,,,,서대문구청 푸른도시과,02-330-1395
,,서울특별시,서대문구,궁동근린공원,37.5728582,126.9276527,허리돌리기,,,,,,,,,,서대문구청 푸른도시과,02-330-1395
,,서울특별시,서대문구,궁동근린공원,37.5728582,126.9276527,허리돌리기2,,,,,,,,,,서대문구청 푸른도시과,02-330-1395
,,서울특별시,서대문구,인왕산공원,37.584278,126.96093,턱걸이,,,,,,,,,,서대문구청 푸른도시과,02-330-1395
,,서울특별시,서대문구,인왕산공원,37.584278,126.96093,허리돌리기,,,,,,,,,,서대문구청 푸른도시과,02-330-1395
,,서울특별시,서대문구,인왕산공원,37.584278,126.96093,풀웨이트,,,,,,,,,,서대문구청 푸른도시과,02-330-1395
,,서울특별시,서대문구,인왕산공원,37.584278,126.96093,공중걷기,,,,,,,,,,서대문구청 푸른도시과,02-330-1395
,,서울특별시,서대문구,인왕산공원,37.584278,126.96093,파도타기,,,,,,,,,,서대문구청 푸른도시과,02-330-1395
,,서울특별시,서대문구,인왕산공원,37.585103,126.961806,상체근육풀기,,,,,,,,,,서대문구청 푸른도시과,02-330-1395
,,서울특별시,서대문구,인왕산공원,37.585103,126.961806,허리돌리기,,,,,,,,,,서대문구청 푸른도시과,02-330-1395
,,서울특별시,서대문구,인왕산공원,37.579771,126.958387,상체근육풀기,,,,,,,,,,서대문구청 푸른도시과,02-330-1395
,,서울특별시,서대문구,인왕산공원,37.579771,126.958387,허리돌리기,,,,,,,,,,서대문구청 푸른도시과,02-330-1395
,,서울특별시,서대문구,인왕산공원,37.579771,126.958387,윗몸일으키기,,,,,,,,,,서대문구청 푸른도시과,02-330-1395
,,서울특별시,서대문구,인왕산공원,37.579771,126.958387,공중걷기,,,,,,,,,,서대문구청 푸른도시과,02-330-1395
,,서울특별시,서대문구,인왕산공원,37.590153,126.960029,역기올리기,,,,,,,,,,서대문구청 푸른도시과,02-330-1395
,,서울특별시,서대문구,인왕산공원,37.590153,126.960029,거꾸로매달리기,,,,,,,,,,서대문구청 푸른도시과,02-330-1395
,,서울특별시,서대문구,인왕산공원,37.590153,126.960029,공중걷기,,,,,,,,,,서대문구청 푸른도시과,02-330-1395
,,서울특별시,서대문구,인왕산공원,37.590153,126.960029,파도타기,,,,,,,,,,서대문구청 푸른도시과,02-330-1395
,,서울특별시,서대문구,인왕산공원,37.590153,126.960029,평행봉,,,,,,,,,,서대문구청 푸른도시과,02-330-1395
,,서울특별시,서대문구,인왕산공원,37.592229,126.958853,허리돌리기,,,,,,,,,,서대문구청 푸른도시과,02-330-1395
,,서울특별시,서대문구,인왕산공원,37.592229,126.958853,풀웨이트,,,,,,,,,,서대문구청 푸른도시과,02-330-1395
,,서울특별시,서대문구,인왕산공원,37.592229,126.958853,상체근육풀기,,,,,,,,,,서대문구청 푸른도시과,02-330-1395
,,서울특별시,서대문구,인왕산공원,37.594092,126.955724,공중걷기,,,,,,,,,,서대문구청 푸른도시과,02-330-1395
,,서울특별시,서대문구,인왕산공원,37.594092,126.955724,파도타기,,,,,,,,,,서대문구청 푸른도시과,02-330-1395
,,서울특별시,서대문구,인왕산공원,37.587564,126.956768,달리기유형,,,,,,,,,,서대문구청 푸른도시과,02-330-1395
,,서울특별시,서대문구,인왕산공원,37.587564,126.956768,상체근육풀기,,,,,,,,,,서대문구청 푸른도시과,02-330-1395
,,서울특별시,서대문구,인왕산공원,37.587564,126.956768,공중걷기,,,,,,,,,,서대문구청 푸른도시과,02-330-1395
,,서울특별시,서대문구,인왕산공원,37.587564,126.956768,파도타기,,,,,,,,,,서대문구청 푸른도시과,02-330-1395
,,서울특별시,서대문구,인왕산공원,37.587564,126.956768,파도타기2,,,,,,,,,,서대문구청 푸른도시과,02-330-1395
,,서울특별시,서대문구,인왕산공원,37.587564,126.956768,풀웨이트,,,,,,,,,,서대문구청 푸른도시과,02-330-1395
,,서울특별시,서대문구,인왕산공원,37.582715,126.959499,허리돌리기,,,,,,,,,,서대문구청 푸른도시과,02-330-1395
,,서울특별시,서대문구,인왕산공원,37.582715,126.959499,상체근육풀기,,,,,,,,,,서대문구청 푸른도시과,02-330-1395
,,서울특별시,서대문구,인왕산공원,37.582715,126.959499,파도타기,,,,,,,,,,서대문구청 푸른도시과,02-330-1395
,,서울특별시,서대문구,인왕산공원,37.582715,126.959499,윗몸일으키기,,,,,,,,,,서대문구청 푸른도시과,02-330-1395
,,서울특별시,서대문구,인왕산공원,37.582715,126.959499,자전거달리기,,,,,,,,,,서대문구청 푸른도시과,02-330-1395
,,서울특별시,서대문구,인왕산공원,37.593767,126.960061,상체근육풀기,,,,,,,,,,서대문구청 푸른도시과,02-330-1395
,,서울특별시,서대문구,인왕산공원,37.593767,126.960061,허리돌리기,,,,,,,,,,서대문구청 푸른도시과,02-330-1395
,,서울특별시,서대문구,인왕산공원,37.58535,126.960358,거꾸로매달리기,,,,,,,,,,서대문구청 푸른도시과,02-330-1395
,,서울특별시,서대문구,인왕산공원,37.58535,126.960358,상체근육풀기,,,,,,,,,,서대문구청 푸른도시과,02-330-1395
,,서울특별시,서대문구,인왕산공원,37.58535,126.960358,파도타기,,,,,,,,,,서대문구청 푸른도시과,02-330-1395
,,서울특별시,서대문구,인왕산공원,37.58535,126.960358,공중걷기,,,,,,,,,,서대문구청 푸른도시과,02-330-1395
,,서울특별시,서대문구,북한산공원,37.5944755,126.9434529,거꾸로매달리기,,,,,,,,,,서대문구청 푸른도시과,02-330-1395
,,서울특별시,서대문구,북한산공원,37.5945561,126.9432558,파도타기,,,,,,,,,,서대문구청 푸른도시과,02-330-1395
,,서울특별시,서대문구,북한산공원,37.594651,126.9431125,등허리지압기,,,,,,,,,,서대문구청 푸른도시과,02-330-1395
,,서울특별시,서대문구,북한산공원,37.5948551,126.9427124,턱걸이,,,,,,,,,,서대문구청 푸른도시과,02-330-1395
,,서울특별시,서대문구,북한산공원,37.5948551,126.9427124,거꾸로매달리기,,,,,,,,,,서대문구청 푸른도시과,02-330-1395
,,서울특별시,서대문구,북한산공원,37.594803,126.9431422,풀웨이트,,,,,,,,,,서대문구청 푸른도시과,02-330-1395
,,서울특별시,서대문구,북한산공원,37.594803,126.9431422,파도타기,,,,,,,,,,서대문구청 푸른도시과,02-330-1395
,,서울특별시,서대문구,북한산공원,37.5939717,126.9428265,등허리지압기,,,,,,,,,,서대문구청 푸른도시과,02-330-1395
,,서울특별시,서대문구,북한산공원,37.5940618,126.9425339,턱걸이,,,,,,,,,,서대문구청 푸른도시과,02-330-1395
,,서울특별시,서대문구,북한산공원,37.5940618,126.9425339,허리돌리기,,,,,,,,,,서대문구청 푸른도시과,02-330-1395
,,서울특별시,서대문구,북한산공원,37.5942901,126.9432441,윗몸일으키기,,,,,,,,,,서대문구청 푸른도시과,02-330-1395
,,서울특별시,서대문구,북한산공원,37.5980108,126.9416812,턱걸이,,,,,,,,,,서대문구청 푸른도시과,02-330-1395
,,서울특별시,서대문구,북한산공원,37.5980108,126.9416812,허리돌리기,,,,,,,,,,서대문구청 푸른도시과,02-330-1395
,,서울특별시,서대문구,북한산공원,37.6014847,126.9410131,거꾸로매달리기,,,,,,,,,,서대문구청 푸른도시과,02-330-1395
,,서울특별시,서대문구,북한산공원,37.6014847,126.9410131,거꾸로매달리기2,,,,,,,,,,서대문구청 푸른도시과,02-330-1395
,,서울특별시,서대문구,북한산공원,37.6014847,126.9410131,공중걷기,,,,,,,,,,서대문구청 푸른도시과,02-330-1395
,,서울특별시,서대문구,북한산공원,37.6014847,126.9410131,파도타기,,,,,,,,,,서대문구청 푸른도시과,02-330-1395
,,서울특별시,서대문구,북한산공원,37.6014847,126.9410131,파도타기2,,,,,,,,,,서대문구청 푸른도시과,02-330-1395
,,서울특별시,서대문구,북한산공원,37.6018979,126.9408217,턱걸이,,,,,,,,,,서대문구청 푸른도시과,02-330-1395
,,서울특별시,서대문구,북한산공원,37.6018979,126.9408217,허리돌리기,,,,,,,,,,서대문구청 푸른도시과,02-330-1395
,,서울특별시,서대문구,북한산공원,37.6018979,126.9408217,윗몸일으키기,,,,,,,,,,서대문구청 푸른도시과,02-330-1395
,,서울특별시,서대문구,북한산공원,37.6016748,126.9411801,등허리지압기,,,,,,,,,,서대문구청 푸른도시과,02-330-1395
,,서울특별시,서대문구,북한산공원,37.6016748,126.9411801,등허리지압기2,,,,,,,,,,서대문구청 푸른도시과,02-330-1395
,,서울특별시,서대문구,북한산공원,37.6016748,126.9411801,턱걸이,,,,,,,,,,서대문구청 푸른도시과,02-330-1395
,,서울특별시,서대문구,북한산공원,37.6026688,126.9460038,상체근육풀기,,,,,,,,,,서대문구청 푸른도시과,02-330-1395
,,서울특별시,서대문구,북한산공원,37.6026688,126.9460038,거꾸로매달리기,,,,,,,,,,서대문구청 푸른도시과,02-330-1395
,,서울특별시,서대문구,북한산공원,37.6026688,126.9460038,공중걷기,,,,,,,,,,서대문구청 푸른도시과,02-330-1395
,,서울특별시,서대문구,북한산공원,37.6026688,126.9460038,파도타기,,,,,,,,,,서대문구청 푸른도시과,02-330-1395
,,서울특별시,서대문구,북한산공원,37.6010957,126.9441244,상체근육풀기,,,,,,,,,,서대문구청 푸른도시과,02-330-1395
,,서울특별시,서대문구,북한산공원,37.6010909,126.944208,거꾸로매달리기,,,,,,,,,,서대문구청 푸른도시과,02-330-1395
,,서울특별시,서대문구,북한산공원,37.6012524,126.9441422,공중걷기,,,,,,,,,,서대문구청 푸른도시과,02-330-1395
,,서울특별시,서대문구,북한산공원,37.6014709,126.9441121,파도타기,,,,,,,,,,서대문구청 푸른도시과,02-330-1395
,,서울특별시,서대문구,북한산공원,37.6038249,126.9516261,달리기유형,,,,,,,,,,서대문구청 푸른도시과,02-330-1395
,,서울특별시,서대문구,북한산공원,37.6038249,126.9516261,상체근육풀기,,,,,,,,,,서대문구청 푸른도시과,02-330-1395
,,서울특별시,서대문구,북한산공원,37.6038249,126.9516261,거꾸로매달리기,,,,,,,,,,서대문구청 푸른도시과,02-330-1395
,,서울특별시,서대문구,북한산공원,37.6038249,126.9516261,공중걷기,,,,,,,,,,서대문구청 푸른도시과,02-330-1395
,,서울특별시,서대문구,북한산공원,37.6038249,126.9516261,파도타기,,,,,,,,,,서대문구청 푸른도시과,02-330-1395
,,서울특별시,서대문구,북한산공원,37.6038249,126.9516261,평행봉,,,,,,,,,,서대문구청 푸른도시과,02-330-1395
,,서울특별시,서대문구,북한산공원,37.6038249,126.9516261,턱걸이,,,,,,,,,,서대문구청 푸른도시과,02-330-1395
,,서울특별시,서대문구,북한산공원,37.6038249,126.9516261,허리돌리기,,,,,,,,,,서대문구청 푸른도시과,02-330-1395
,,서울특별시,서대문구,북한산공원,37.6038249,126.9516261,허리돌리기2,,,,,,,,,,서대문구청 푸른도시과,02-330-1395
,,서울특별시,서대문구,북한산공원,37.6038249,126.9516261,윗몸일으키기,,,,,,,,,,서대문구청 푸른도시과,02-330-1395
,,서울특별시,서대문구,북한산공원,37.6037255,126.9523843,허리돌리기,,,,,,,,,,서대문구청 푸른도시과,02-330-1395
,,서울특별시,서대문구,북한산공원,37.6037255,126.9523843,윗몸일으키기,,,,,,,,,,서대문구청 푸른도시과,02-330-1395
,,서울특별시,서대문구,북한산공원,37.6038679,126.9522111,허리돌리기,,,,,,,,,,서대문구청 푸른도시과,02-330-1395
,,서울특별시,서대문구,북한산공원,37.5993161,126.9433173,역기올리기,,,,,,,,,,서대문구청 푸른도시과,02-330-1395
,,서울특별시,서대문구,북한산공원,37.5993161,126.9433173,달리기유형,,,,,,,,,,서대문구청 푸른도시과,02-330-1395
,,서울특별시,서대문구,북한산공원,37.5994324,126.9432844,허리돌리기,,,,,,,,,,서대문구청 푸른도시과,02-330-1395
,,서울특별시,서대문구,북한산공원,37.6038692,126.9467864,상체근육풀기,,,,,,,,,,서대문구청 푸른도시과,02-330-1395
,,서울특별시,서대문구,북한산공원,37.6034537,126.9471061,파도타기,,,,,,,,,,서대문구청 푸른도시과,02-330-1395
,,서울특별시,서대문구,북한산공원,37.6034537,126.9471061,윗몸일으키기,,,,,,,,,,서대문구청 푸른도시과,02-330-1395
,,서울특별시,서대문구,북한산공원,37.603083,126.9467213,거꾸로매달리기,,,,,,,,,,서대문구청 푸른도시과,02-330-1395
,,서울특별시,서대문구,북한산공원,37.603083,126.9467213,거꾸로매달리기2,,,,,,,,,,서대문구청 푸른도시과,02-330-1395
,,서울특별시,서대문구,북한산공원,37.603083,126.9467213,윗몸일으키기,,,,,,,,,,서대문구청 푸른도시과,02-330-1395
,,서울특별시,서대문구,북한산공원,37.6028764,126.9467453,파도타기,,,,,,,,,,서대문구청 푸른도시과,02-330-1395
,,서울특별시,서대문구,북한산공원,37.6028764,126.9467453,파도타기2,,,,,,,,,,서대문구청 푸른도시과,02-330-1395
,,서울특별시,서대문구,북한산공원,37.6015515,126.9442606,파도타기,,,,,,,,,,서대문구청 푸른도시과,02-330-1395
,,서울특별시,서대문구,북한산공원,37.5982676,126.9430363,역기올리기,,,,,,,,,,서대문구청 푸른도시과,02-330-1395
,,서울특별시,서대문구,북한산공원,37.5982676,126.9430363,달리기유형,,,,,,,,,,서대문구청 푸른도시과,02-330-1395
,,서울특별시,서대문구,북한산공원,37.5982676,126.9430363,상체근육풀기,,,,,,,,,,서대문구청 푸른도시과,02-330-1395
,,서울특별시,서대문구,북한산공원,37.5982676,126.9430363,등허리지압기,,,,,,,,,,서대문구청 푸른도시과,02-330-1395
,,서울특별시,서대문구,북한산공원,37.5982676,126.9430363,평행봉,,,,,,,,,,서대문구청 푸른도시과,02-330-1395
,,서울특별시,서대문구,북한산공원,37.5982676,126.9430363,턱걸이,,,,,,,,,,서대문구청 푸른도시과,02-330-1395
,,서울특별시,서대문구,북한산공원,37.5982676,126.9430363,윗몸일으키기,,,,,,,,,,서대문구청 푸른도시과,02-330-1395
,,서울특별시,서대문구,북한산공원,37.5982676,126.9430363,풀웨이트,,,,,,,,,,서대문구청 푸른도시과,02-330-1395
,,서울특별시,서대문구,중앙근린공원,37.5747776,126.9122873,공중걷기,,,,,,,,,,서대문구청 푸른도시과,02-330-1395
,,서울특별시,서대문구,중앙근린공원,37.5747705,126.9123158,허리돌리기,,,,,,,,,,서대문구청 푸른도시과,02-330-1395
,,서울특별시,서대문구,중앙근린공원,37.5748768,126.9140869,공중걷기,,,,,,,,,,서대문구청 푸른도시과,02-330-1395
,,서울특별시,서대문구,중앙근린공원,37.574925,126.9140797,허리돌리기,,,,,,,,,,서대문구청 푸른도시과,02-330-1395
,,서울특별시,서대문구,중앙근린공원,37.5749278,126.9140833,다리뻗치기,,,,,,,,,,서대문구청 푸른도시과,02-330-1395
,,서울특별시,서대문구,창천근린공원,37.5577427,126.9402263,달리기유형,,,,,,,,,,서대문구청 푸른도시과,02-330-1395
,,서울특별시,서대문구,창천근린공원,37.5577297,126.9402461,상체근육풀기,,,,,,,,,,서대문구청 푸른도시과,02-330-1395
,,서울특별시,서대문구,창천근린공원,37.5577439,126.9402387,거꾸로매달리기,,,,,,,,,,서대문구청 푸른도시과,02-330-1395
,,서울특별시,서대문구,창천근린공원,37.5576968,126.940273,파도타기,,,,,,,,,,서대문구청 푸른도시과,02-330-1395
,,서울특별시,서대문구,창천근린공원,37.5576745,126.940273,파도타기2,,,,,,,,,,서대문구청 푸른도시과,02-330-1395
,,서울특별시,서대문구,창천근린공원,37.5576634,126.9402606,등허리지압기,,,,,,,,,,서대문구청 푸른도시과,02-330-1395
,,서울특별시,서대문구,창천근린공원,37.5576609,126.9403042,풀웨이트,,,,,,,,,,서대문구청 푸른도시과,02-330-1395
,,서울특별시,서대문구,창천근린공원,37.5578636,126.9408375,평행봉,,,,,,,,,,서대문구청 푸른도시과,02-330-1395
,,서울특별시,서대문구,창천근린공원,37.5579012,126.9408249,윗몸일으키기,,,,,,,,,,서대문구청 푸른도시과,02-330-1395
